{
"type": "FeatureCollection",
"name": "intersection_pro",
"crs": { "type": "name", "properties": { "name": "urn:ogc:def:crs:OGC:1.3:CRS84" } },
"features": [
{ "type": "Feature", "properties": { "FID": 1, "交差点番号": 5339452951, "交差点名": "溜池", "Y": 35.670961, "X": 139.742857, "Street1": "六本木通り", "street2": "外堀通り", "Street3": null, "rank": 1 }, "geometry": { "type": "Point", "coordinates": [ 139.742857, 35.670961 ] } },
{ "type": "Feature", "properties": { "FID": 2, "交差点番号": 5339352255, "交差点名": "六本木", "Y": 35.663235, "X": 139.732277, "Street1": "六本木通り", "street2": "外苑東通り", "Street3": null, "rank": 1 }, "geometry": { "type": "Point", "coordinates": [ 139.732277, 35.663235 ] } },
{ "type": "Feature", "properties": { "FID": 3, "交差点番号": 5339354765, "交差点名": "西麻布", "Y": 35.659747, "X": 139.723452, "Street1": "六本木通り", "street2": "外苑西通り", "Street3": null, "rank": 1 }, "geometry": { "type": "Point", "coordinates": [ 139.723452, 35.659747 ] } },
{ "type": "Feature", "properties": { "FID": 4, "交差点番号": 5339352118, "交差点名": "高樹町", "Y": 35.659358, "X": 139.718988, "Street1": "六本木通り", "street2": "日赤通り", "Street3": "骨董通り", "rank": 1 }, "geometry": { "type": "Point", "coordinates": [ 139.718988, 35.659358 ] } },
{ "type": "Feature", "properties": { "FID": 5, "交差点番号": 5339354403, "交差点名": "南青山七丁目", "Y": 35.659, "X": 139.715475, "Street1": "六本木通り", "street2": "駒沢通り", "Street3": null, "rank": 2 }, "geometry": { "type": "Point", "coordinates": [ 139.715475, 35.659 ] } },
{ "type": "Feature", "properties": { "FID": 6, "交差点番号": 5339351888, "交差点名": "神泉町", "Y": 35.653995, "X": 139.693291, "Street1": "玉川通り", "street2": "旧山手通り", "Street3": null, "rank": 1 }, "geometry": { "type": "Point", "coordinates": [ 139.693291, 35.653995 ] } },
{ "type": "Feature", "properties": { "FID": 7, "交差点番号": 5339351339, "交差点名": "上馬", "Y": 35.635465, "X": 139.664601, "Street1": "玉川通り", "street2": "環七通り", "Street3": null, "rank": 2 }, "geometry": { "type": "Point", "coordinates": [ 139.664601, 35.635465 ] } },
{ "type": "Feature", "properties": { "FID": 8, "交差点番号": 5339353624, "交差点名": "瀬田", "Y": 35.621121, "X": 139.631212, "Street1": "玉川通り", "street2": "環八通り", "Street3": null, "rank": 1 }, "geometry": { "type": "Point", "coordinates": [ 139.631212, 35.621121 ] } },
{ "type": "Feature", "properties": { "FID": 9, "交差点番号": 5339454609, "交差点名": "青山一丁目", "Y": 35.67275, "X": 139.724066, "Street1": "青山通り", "street2": "外苑東通り", "Street3": null, "rank": 1 }, "geometry": { "type": "Point", "coordinates": [ 139.724066, 35.67275 ] } },
{ "type": "Feature", "properties": { "FID": 10, "交差点番号": 5339354815, "交差点名": "南青山三丁目", "Y": 35.669106, "X": 139.715915, "Street1": "青山通り", "street2": "外苑西通り", "Street3": null, "rank": 2 }, "geometry": { "type": "Point", "coordinates": [ 139.715915, 35.669106 ] } },
{ "type": "Feature", "properties": { "FID": 11, "交差点番号": 5339354234, "交差点名": "表参道", "Y": 35.6651717, "X": 139.7122125, "Street1": "青山通り", "street2": "表参道", "Street3": null, "rank": 1 }, "geometry": { "type": "Point", "coordinates": [ 139.712532784349094, 35.665153763229576 ] } },
{ "type": "Feature", "properties": { "FID": 12, "交差点番号": 5339354809, "交差点名": "神宮前", "Y": 35.6684635, "X": 139.7050232, "Street1": "表参道", "street2": "明治通り", "Street3": null, "rank": 2 }, "geometry": { "type": "Point", "coordinates": [ 139.705331272871177, 35.668473389168291 ] } },
{ "type": "Feature", "properties": { "FID": 13, "交差点番号": 5339354456, "交差点名": "富ヶ谷", "Y": 35.667806, "X": 139.687905, "Street1": "井の頭通り", "street2": "山手通り", "Street3": null, "rank": 2 }, "geometry": { "type": "Point", "coordinates": [ 139.687905, 35.667806 ] } },
{ "type": "Feature", "properties": { "FID": 14, "交差点番号": 5339454233, "交差点名": "半蔵門", "Y": 35.683922, "X": 139.744148, "Street1": "新宿通り", "street2": "内堀通り", "Street3": null, "rank": 1 }, "geometry": { "type": "Point", "coordinates": [ 139.744148, 35.683922 ] } },
{ "type": "Feature", "properties": { "FID": 15, "交差点番号": 5339454243, "交差点名": "四谷見附", "Y": 35.685873, "X": 139.729417, "Street1": "新宿通り", "street2": "外堀通り", "Street3": null, "rank": 1 }, "geometry": { "type": "Point", "coordinates": [ 139.729417, 35.685873 ] } },
{ "type": "Feature", "properties": { "FID": 16, "交差点番号": 5339454256, "交差点名": "四谷三丁目", "Y": 35.687953, "X": 139.720364, "Street1": "新宿通り", "street2": "外苑東通り", "Street3": null, "rank": 1 }, "geometry": { "type": "Point", "coordinates": [ 139.720364, 35.687953 ] } },
{ "type": "Feature", "properties": { "FID": 17, "交差点番号": null, "交差点名": "参宮橋", "Y": 35.679498, "X": 139.694182, "Street1": "西参道", "street2": null, "Street3": null, "rank": 8 }, "geometry": { "type": "Point", "coordinates": [ 139.6942711948046, 35.679288198201775 ] } },
{ "type": "Feature", "properties": { "FID": 18, "交差点番号": null, "交差点名": "初台", "Y": 35.682399, "X": 139.688203, "Street1": "甲州街道", "street2": "山手通り", "Street3": null, "rank": 1 }, "geometry": { "type": "Point", "coordinates": [ 139.688203, 35.682399 ] } },
{ "type": "Feature", "properties": { "FID": 19, "交差点番号": null, "交差点名": "大原", "Y": 35.672553, "X": 139.660641, "Street1": "甲州街道", "street2": "環七通り", "Street3": null, "rank": 1 }, "geometry": { "type": "Point", "coordinates": [ 139.660641, 35.672553 ] } },
{ "type": "Feature", "properties": { "FID": 20, "交差点番号": null, "交差点名": "富久町西", "Y": 35.691334, "X": 139.713603, "Street1": "靖国通り", "street2": "外苑西通り", "Street3": null, "rank": 2 }, "geometry": { "type": "Point", "coordinates": [ 139.714600731329, 35.691329526519368 ] } },
{ "type": "Feature", "properties": { "FID": 21, "交差点番号": null, "交差点名": "中野坂上", "Y": 35.697017, "X": 139.682887, "Street1": "青梅街道", "street2": "山手通り", "Street3": null, "rank": 1 }, "geometry": { "type": "Point", "coordinates": [ 139.682887, 35.697017 ] } },
{ "type": "Feature", "properties": { "FID": 22, "交差点番号": null, "交差点名": "四面道", "Y": 35.708046, "X": 139.615088, "Street1": "青梅街道", "street2": "環八通り", "Street3": null, "rank": 2 }, "geometry": { "type": "Point", "coordinates": [ 139.615088, 35.708046 ] } },
{ "type": "Feature", "properties": { "FID": 23, "交差点番号": null, "交差点名": "清水橋", "Y": 35.68885, "X": 139.682291, "Street1": "方南通り", "street2": "山手通り", "Street3": null, "rank": 2 }, "geometry": { "type": "Point", "coordinates": [ 139.682291, 35.68885 ] } },
{ "type": "Feature", "properties": { "FID": 24, "交差点番号": null, "交差点名": "南台", "Y": 35.686175, "X": 139.669088, "Street1": "方南通り", "street2": "中野通り", "Street3": null, "rank": 2 }, "geometry": { "type": "Point", "coordinates": [ 139.669088, 35.686175 ] } },
{ "type": "Feature", "properties": { "FID": 25, "交差点番号": null, "交差点名": "西永福", "Y": 35.680065, "X": 139.636281, "Street1": "井の頭通り", "street2": "方南通り", "Street3": null, "rank": 3 }, "geometry": { "type": "Point", "coordinates": [ 139.636281, 35.680065 ] } },
{ "type": "Feature", "properties": { "FID": 26, "交差点番号": null, "交差点名": "九段下", "Y": 35.695453, "X": 139.751389, "Street1": "靖国通り", "street2": "目白通り", "Street3": "内堀通り", "rank": 1 }, "geometry": { "type": "Point", "coordinates": [ 139.751389, 35.695453 ] } },
{ "type": "Feature", "properties": { "FID": 27, "交差点番号": null, "交差点名": "飯田橋", "Y": 35.702615, "X": 139.744773, "Street1": "目白通り", "street2": "外堀通り", "Street3": "大久保通り", "rank": 1 }, "geometry": { "type": "Point", "coordinates": [ 139.744773, 35.702615 ] } },
{ "type": "Feature", "properties": { "FID": 28, "交差点番号": null, "交差点名": "江戸川橋", "Y": 35.710145, "X": 139.731563, "Street1": "目白通り", "street2": "新目白通り", "Street3": null, "rank": 3 }, "geometry": { "type": "Point", "coordinates": [ 139.731563, 35.710145 ] } },
{ "type": "Feature", "properties": { "FID": 29, "交差点番号": null, "交差点名": "神保町", "Y": 35.6959554, "X": 139.7576941, "Street1": "靖国通り", "street2": "白山通り", "Street3": null, "rank": 2 }, "geometry": { "type": "Point", "coordinates": [ 139.758074663917995, 35.695960683068023 ] } },
{ "type": "Feature", "properties": { "FID": 30, "交差点番号": null, "交差点名": "春日町", "Y": 35.708449, "X": 139.753648, "Street1": "白山通り", "street2": "春日通り", "Street3": null, "rank": 1 }, "geometry": { "type": "Point", "coordinates": [ 139.753648, 35.708449 ] } },
{ "type": "Feature", "properties": { "FID": 31, "交差点番号": null, "交差点名": "西片", "Y": 35.71168, "X": 139.752755, "Street1": "白山通り", "street2": "言問通り", "Street3": null, "rank": 2 }, "geometry": { "type": "Point", "coordinates": [ 139.752828446989383, 35.71121800579094 ] } },
{ "type": "Feature", "properties": { "FID": 32, "交差点番号": null, "交差点名": "千石一丁目", "Y": 35.72863, "X": 139.743895, "Street1": "白山通り", "street2": "不忍通り", "Street3": null, "rank": 3 }, "geometry": { "type": "Point", "coordinates": [ 139.743895, 35.72863 ] } },
{ "type": "Feature", "properties": { "FID": 33, "交差点番号": null, "交差点名": "白山上", "Y": 35.722582, "X": 139.752699, "Street1": "旧白山通り", "street2": "国道17号線", "Street3": null, "rank": 3 }, "geometry": { "type": "Point", "coordinates": [ 139.752699, 35.722582 ] } },
{ "type": "Feature", "properties": { "FID": 34, "交差点番号": null, "交差点名": "西巣鴨", "Y": 35.744184, "X": 139.728082, "Street1": "中山道", "street2": "明治通り", "Street3": null, "rank": 2 }, "geometry": { "type": "Point", "coordinates": [ 139.728082, 35.744184 ] } },
{ "type": "Feature", "properties": { "FID": 35, "交差点番号": null, "交差点名": "本郷三丁目", "Y": 35.7074822, "X": 139.7606065, "Street1": "春日通り", "street2": "本郷通り", "Street3": null, "rank": 2 }, "geometry": { "type": "Point", "coordinates": [ 139.7606065, 35.7074822 ] } },
{ "type": "Feature", "properties": { "FID": 36, "交差点番号": null, "交差点名": "飛鳥山", "Y": 35.750859, "X": 139.737398, "Street1": "本郷通り", "street2": "明治通り", "Street3": null, "rank": 3 }, "geometry": { "type": "Point", "coordinates": [ 139.737398, 35.750859 ] } },
{ "type": "Feature", "properties": { "FID": 37, "交差点番号": null, "交差点名": "根津一丁目", "Y": 35.717878, "X": 139.7549458, "Street1": "不忍通り", "street2": "言問通り", "Street3": null, "rank": 2 }, "geometry": { "type": "Point", "coordinates": [ 139.765226588642548, 35.717881607439075 ] } },
{ "type": "Feature", "properties": { "FID": 38, "交差点番号": null, "交差点名": "大関横丁", "Y": 35.7299057, "X": 139.7919759, "Street1": "日光街道", "street2": "明治通り", "Street3": null, "rank": 2 }, "geometry": { "type": "Point", "coordinates": [ 139.791765623303121, 35.730014329950428 ] } },
{ "type": "Feature", "properties": { "FID": 39, "交差点番号": null, "交差点名": "上野広小路", "Y": 35.7080404, "X": 139.7728766, "Street1": "春日通り", "street2": "中央通り", "Street3": null, "rank": 2 }, "geometry": { "type": "Point", "coordinates": [ 139.773034936976984, 35.708037729735487 ] } },
{ "type": "Feature", "properties": { "FID": 40, "交差点番号": null, "交差点名": "岩本町", "Y": 35.695597, "X": 139.775431, "Street1": "靖国通り", "street2": "昭和通り", "Street3": null, "rank": 1 }, "geometry": { "type": "Point", "coordinates": [ 139.775431, 35.695597 ] } },
{ "type": "Feature", "properties": { "FID": 41, "交差点番号": null, "交差点名": "室町三丁目", "Y": 35.688678, "X": 139.772952, "Street1": "江戸通り", "street2": "中央通り", "Street3": null, "rank": 2 }, "geometry": { "type": "Point", "coordinates": [ 139.772952, 35.688678 ] } },
{ "type": "Feature", "properties": { "FID": 42, "交差点番号": null, "交差点名": "日本橋", "Y": 35.6825368, "X": 139.7733613, "Street1": "永代通り", "street2": "中央通り", "Street3": null, "rank": 1 }, "geometry": { "type": "Point", "coordinates": [ 139.773633007819399, 35.682524126256872 ] } },
{ "type": "Feature", "properties": { "FID": 43, "交差点番号": null, "交差点名": "京橋", "Y": 35.6764355, "X": 139.7696762, "Street1": "鍛冶橋通り", "street2": "中央通り", "Street3": null, "rank": 1 }, "geometry": { "type": "Point", "coordinates": [ 139.769768602639715, 35.676208851506665 ] } },
{ "type": "Feature", "properties": { "FID": 44, "交差点番号": null, "交差点名": "銀座四丁目", "Y": 35.6711764, "X": 139.7651101, "Street1": "晴海通り", "street2": "中央通り", "Street3": null, "rank": 1 }, "geometry": { "type": "Point", "coordinates": [ 139.765110099999987, 35.6711764 ] } },
{ "type": "Feature", "properties": { "FID": 45, "交差点番号": null, "交差点名": "神田橋", "Y": 35.690082, "X": 139.76432, "Street1": "日比谷通り", "street2": "本郷通り", "Street3": null, "rank": 3 }, "geometry": { "type": "Point", "coordinates": [ 139.764437594292275, 35.6900903516554 ] } },
{ "type": "Feature", "properties": { "FID": 46, "交差点番号": null, "交差点名": "常盤橋", "Y": 35.685208, "X": 139.7712276, "Street1": "外堀通り", "street2": null, "Street3": null, "rank": 8 }, "geometry": { "type": "Point", "coordinates": [ 139.7712276, 35.685208 ] } },
{ "type": "Feature", "properties": { "FID": 47, "交差点番号": null, "交差点名": "呉服橋", "Y": 35.6835962, "X": 139.770242, "Street1": "永代通り", "street2": "外堀通り", "Street3": null, "rank": 1 }, "geometry": { "type": "Point", "coordinates": [ 139.770842822605829, 35.683600017667324 ] } },
{ "type": "Feature", "properties": { "FID": 48, "交差点番号": null, "交差点名": "鍛冶橋", "Y": 35.6772601, "X": 139.7663943, "Street1": "鍛冶橋通り", "street2": "外堀通り", "Street3": null, "rank": 2 }, "geometry": { "type": "Point", "coordinates": [ 139.767099464352697, 35.677216130606261 ] } },
{ "type": "Feature", "properties": { "FID": 49, "交差点番号": null, "交差点名": "数寄屋橋", "Y": 35.6725026, "X": 139.7631828, "Street1": "晴海通り", "street2": "外堀通り", "Street3": null, "rank": 1 }, "geometry": { "type": "Point", "coordinates": [ 139.76318280000001, 35.6725026 ] } },
{ "type": "Feature", "properties": { "FID": 50, "交差点番号": null, "交差点名": "大手町", "Y": 35.6852014, "X": 139.7630559, "Street1": "永代通り", "street2": "日比谷通り", "Street3": null, "rank": 1 }, "geometry": { "type": "Point", "coordinates": [ 139.763055900000012, 35.6852014 ] } },
{ "type": "Feature", "properties": { "FID": 51, "交差点番号": null, "交差点名": "日比谷", "Y": 35.6749811, "X": 139.7589313, "Street1": "晴海通り", "street2": "日比谷通り", "Street3": null, "rank": 1 }, "geometry": { "type": "Point", "coordinates": [ 139.759542012330741, 35.674988710032054 ] } },
{ "type": "Feature", "properties": { "FID": 52, "交差点番号": null, "交差点名": "御成門", "Y": 35.6609901, "X": 139.7508163, "Street1": "日比谷通り", "street2": null, "Street3": null, "rank": 7 }, "geometry": { "type": "Point", "coordinates": [ 139.751525656257655, 35.660973103012019 ] } },
{ "type": "Feature", "properties": { "FID": 53, "交差点番号": null, "交差点名": "祝田橋", "Y": 35.6767101, "X": 139.7552463, "Street1": "晴海通り", "street2": "内堀通り", "Street3": "愛宕下通り", "rank": 1 }, "geometry": { "type": "Point", "coordinates": [ 139.755912592234665, 35.676723302288252 ] } },
{ "type": "Feature", "properties": { "FID": 54, "交差点番号": null, "交差点名": "桜田門", "Y": 35.6776913, "X": 139.7508861, "Street1": "桜田通り", "street2": "内堀通り", "Street3": null, "rank": 2 }, "geometry": { "type": "Point", "coordinates": [ 139.749825927559499, 35.676980982136172 ] } },
{ "type": "Feature", "properties": { "FID": 55, "交差点番号": null, "交差点名": "虎ノ門", "Y": 35.6704135, "X": 139.7484515, "Street1": "桜田通り", "street2": "外堀通り", "Street3": null, "rank": 1 }, "geometry": { "type": "Point", "coordinates": [ 139.749413009427514, 35.670417821652372 ] } },
{ "type": "Feature", "properties": { "FID": 56, "交差点番号": null, "交差点名": "飯倉", "Y": 35.6596732, "X": 139.7416475, "Street1": "桜田通り", "street2": "外苑東通り", "Street3": null, "rank": 1 }, "geometry": { "type": "Point", "coordinates": [ 139.742912390275194, 35.659624686383687 ] } },
{ "type": "Feature", "properties": { "FID": 57, "交差点番号": null, "交差点名": "飯倉片町", "Y": 35.6611961, "X": 139.7372493, "Street1": "麻布通り", "street2": "外苑東通り", "Street3": null, "rank": 1 }, "geometry": { "type": "Point", "coordinates": [ 139.737903906484945, 35.661228255164673 ] } },
{ "type": "Feature", "properties": { "FID": 58, "交差点番号": null, "交差点名": "赤羽橋", "Y": 35.6550473, "X": 139.7454063, "Street1": "桜田通り", "street2": "愛宕下通り", "Street3": "環状三号線", "rank": 1 }, "geometry": { "type": "Point", "coordinates": [ 139.745294871201935, 35.654957422298821 ] } },
{ "type": "Feature", "properties": { "FID": 59, "交差点番号": null, "交差点名": "新一の橋", "Y": 35.6562853, "X": 139.7363845, "Street1": "麻布通り", "street2": "環状三号線", "Street3": null, "rank": 1 }, "geometry": { "type": "Point", "coordinates": [ 139.737203718812822, 35.656319173942144 ] } },
{ "type": "Feature", "properties": { "FID": 60, "交差点番号": null, "交差点名": "古川橋", "Y": 35.6465662, "X": 139.735283, "Street1": "麻布通り", "street2": "明治通り", "Street3": null, "rank": 1 }, "geometry": { "type": "Point", "coordinates": [ 139.73589290149306, 35.64663895888313 ] } },
{ "type": "Feature", "properties": { "FID": 61, "交差点番号": null, "交差点名": "天現寺", "Y": 35.6476581, "X": 139.7221903, "Street1": "外苑西通り", "street2": "明治通り", "Street3": null, "rank": 1 }, "geometry": { "type": "Point", "coordinates": [ 139.722863184079529, 35.64768158541775 ] } },
{ "type": "Feature", "properties": { "FID": 62, "交差点番号": null, "交差点名": "清正公前", "Y": 35.6403522, "X": 139.7321, "Street1": "桜田通り", "street2": "目黒通り", "Street3": null, "rank": 2 }, "geometry": { "type": "Point", "coordinates": [ 139.732696885253318, 35.640385165215498 ] } },
{ "type": "Feature", "properties": { "FID": 63, "交差点番号": null, "交差点名": "白金台", "Y": 35.6369722, "X": 139.7240278, "Street1": "目黒通り", "street2": "外苑西通り", "Street3": null, "rank": 2 }, "geometry": { "type": "Point", "coordinates": [ 139.724027799999988, 35.6369722 ] } },
{ "type": "Feature", "properties": { "FID": 64, "交差点番号": null, "交差点名": "高輪台", "Y": 35.6321272, "X": 139.730036, "Street1": "桜田通り", "street2": null, "Street3": null, "rank": 3 }, "geometry": { "type": "Point", "coordinates": [ 139.730805301530353, 35.632113450289062 ] } },
{ "type": "Feature", "properties": { "FID": 65, "交差点番号": null, "交差点名": "渋谷橋", "Y": 35.6489353, "X": 139.7087401, "Street1": "駒沢通り", "street2": "明治通り", "Street3": null, "rank": 1 }, "geometry": { "type": "Point", "coordinates": [ 139.711276924051901, 35.64897825172168 ] } },
{ "type": "Feature", "properties": { "FID": 66, "交差点番号": null, "交差点名": "札の辻", "Y": 35.6451531, "X": 139.7435673, "Street1": "第一京浜", "street2": "三田通り", "Street3": null, "rank": 1 }, "geometry": { "type": "Point", "coordinates": [ 139.744179918821118, 35.645210261160223 ] } },
{ "type": "Feature", "properties": { "FID": 67, "交差点番号": null, "交差点名": "鎗ヶ崎", "Y": 35.6466413, "X": 139.6999081, "Street1": "駒沢通り", "street2": "旧山手通り", "Street3": null, "rank": 1 }, "geometry": { "type": "Point", "coordinates": [ 139.702421148954102, 35.646607321071208 ] } },
{ "type": "Feature", "properties": { "FID": 68, "交差点番号": null, "交差点名": "大鳥神社", "Y": 35.6327015, "X": 139.7074936, "Street1": "目黒通り", "street2": "山手通り", "Street3": null, "rank": 2 }, "geometry": { "type": "Point", "coordinates": [ 139.708421692175108, 35.632721568960321 ] } },
{ "type": "Feature", "properties": { "FID": 69, "交差点番号": null, "交差点名": "大崎広小路", "Y": 35.6232743, "X": 139.7196371, "Street1": "山手通り", "street2": "ソニー通り", "Street3": null, "rank": 2 }, "geometry": { "type": "Point", "coordinates": [ 139.722145678699349, 35.623278605745483 ] } },
{ "type": "Feature", "properties": { "FID": 70, "交差点番号": null, "交差点名": "平塚橋", "Y": 35.6154673, "X": 139.7063151, "Street1": "中原街道", "street2": "鮫洲大山線（環状6.5号線）", "Street3": null, "rank": 3 }, "geometry": { "type": "Point", "coordinates": [ 139.709045038551295, 35.615482854848231 ] } },
{ "type": "Feature", "properties": { "FID": 71, "交差点番号": null, "交差点名": "戸越三丁目", "Y": 35.6115931, "X": 139.7146733, "Street1": "第二京浜", "street2": "鮫洲大山線（環状6.5号線）", "Street3": null, "rank": 3 }, "geometry": { "type": "Point", "coordinates": [ 139.715302844836032, 35.611603693190752 ] } },
{ "type": "Feature", "properties": { "FID": 72, "交差点番号": null, "交差点名": "南千束", "Y": 35.6036541, "X": 139.6969183, "Street1": "中原街道", "street2": "環七通り", "Street3": null, "rank": 2 }, "geometry": { "type": "Point", "coordinates": [ 139.697603116620854, 35.603697630501685 ] } },
{ "type": "Feature", "properties": { "FID": 73, "交差点番号": null, "交差点名": "南蒲田", "Y": 35.5580162, "X": 139.7214194, "Street1": "第一京浜", "street2": "環八通り", "Street3": null, "rank": 2 }, "geometry": { "type": "Point", "coordinates": [ 139.722154338079747, 35.557989242918694 ] } },
{ "type": "Feature", "properties": { "FID": 74, "交差点番号": null, "交差点名": "三原橋", "Y": 35.6695894, "X": 139.766825, "Street1": "晴海通り", "street2": "昭和通り", "Street3": null, "rank": 1 }, "geometry": { "type": "Point", "coordinates": [ 139.767129491291172, 35.669570119310627 ] } },
{ "type": "Feature", "properties": { "FID": 75, "交差点番号": null, "交差点名": "築地四丁目", "Y": 35.6665533, "X": 139.7680731, "Street1": "新大橋通り", "street2": "晴海通り", "Street3": null, "rank": 1 }, "geometry": { "type": "Point", "coordinates": [ 139.770710599756427, 35.666609422076 ] } },
{ "type": "Feature", "properties": { "FID": 76, "交差点番号": null, "交差点名": "晴海三丁目", "Y": 35.6552825, "X": 139.7808536, "Street1": "晴海通り", "street2": "有明通り", "Street3": null, "rank": 2 }, "geometry": { "type": "Point", "coordinates": [ 139.781833456471247, 35.655247527684622 ] } },
{ "type": "Feature", "properties": { "FID": 77, "交差点番号": null, "交差点名": "茅場町", "Y": 35.6799446, "X": 139.779922, "Street1": "永代通り", "street2": "新大橋通り", "Street3": null, "rank": 2 }, "geometry": { "type": "Point", "coordinates": [ 139.780123424611332, 35.679900930277206 ] } },
{ "type": "Feature", "properties": { "FID": 78, "交差点番号": null, "交差点名": "水天宮前", "Y": 35.6837437, "X": 139.7844158, "Street1": "新大橋通り", "street2": "水天宮通り", "Street3": null, "rank": 2 }, "geometry": { "type": "Point", "coordinates": [ 139.7844158, 35.6837437 ] } },
{ "type": "Feature", "properties": { "FID": 79, "交差点番号": null, "交差点名": "浅草橋", "Y": 35.6949041, "X": 139.7840353, "Street1": "靖国通り", "street2": "江戸通り", "Street3": "京葉道路", "rank": 1 }, "geometry": { "type": "Point", "coordinates": [ 139.7840353, 35.6949041 ] } },
{ "type": "Feature", "properties": { "FID": 80, "交差点番号": null, "交差点名": "新川二丁目", "Y": 35.6749938, "X": 139.7805542, "Street1": "八重洲通り", "street2": "鍛冶橋通り", "Street3": null, "rank": 3 }, "geometry": { "type": "Point", "coordinates": [ 139.781488224503647, 35.67498530928102 ] } },
{ "type": "Feature", "properties": { "FID": 81, "交差点番号": null, "交差点名": "門前仲町", "Y": 35.672789, "X": 139.7945098, "Street1": "永代通り", "street2": "清澄通り", "Street3": null, "rank": 1 }, "geometry": { "type": "Point", "coordinates": [ 139.794906028148546, 35.672400758101979 ] } },
{ "type": "Feature", "properties": { "FID": 82, "交差点番号": null, "交差点名": "森下駅前", "Y": 35.6879778, "X": 139.798045, "Street1": "新大橋通り", "street2": "清澄通り", "Street3": null, "rank": 2 }, "geometry": { "type": "Point", "coordinates": [ 139.798263232444214, 35.687978202879009 ] } },
{ "type": "Feature", "properties": { "FID": 83, "交差点番号": null, "交差点名": "緑三丁目", "Y": 35.6949923, "X": 139.804728, "Street1": "京葉道路", "street2": "三ツ目通り", "Street3": null, "rank": 3 }, "geometry": { "type": "Point", "coordinates": [ 139.805467615412653, 35.694984813189336 ] } },
{ "type": "Feature", "properties": { "FID": 84, "交差点番号": null, "交差点名": "江東橋", "Y": 35.6952441, "X": 139.8086553, "Street1": "京葉道路", "street2": "中之橋通り", "Street3": null, "rank": 3 }, "geometry": { "type": "Point", "coordinates": [ 139.807936691238694, 35.69510742558127 ] } },
{ "type": "Feature", "properties": { "FID": 85, "交差点番号": null, "交差点名": "木場五丁目", "Y": 35.669503, "X": 139.8057841, "Street1": "永代通り", "street2": "三ツ目通り", "Street3": null, "rank": 3 }, "geometry": { "type": "Point", "coordinates": [ 139.805784100000011, 35.669503 ] } },
{ "type": "Feature", "properties": { "FID": 86, "交差点番号": null, "交差点名": "大島六丁目", "Y": 35.6899041, "X": 139.8351683, "Street1": "新大橋通り", "street2": "丸八通り", "Street3": null, "rank": 3 }, "geometry": { "type": "Point", "coordinates": [ 139.835659358549663, 35.689859502109059 ] } },
{ "type": "Feature", "properties": { "FID": 87, "交差点番号": null, "交差点名": "区民センター", "Y": 35.6889624, "X": 139.8262546, "Street1": "新大橋通り", "street2": "明治通り", "Street3": null, "rank": 2 }, "geometry": { "type": "Point", "coordinates": [ 139.826292214418231, 35.689314526681841 ] } },
{ "type": "Feature", "properties": { "FID": 88, "交差点番号": null, "交差点名": "菊川駅前", "Y": 35.6884061, "X": 139.8059717, "Street1": "新大橋通り", "street2": "三ツ目通り", "Street3": null, "rank": 3 }, "geometry": { "type": "Point", "coordinates": [ 139.805971699999986, 35.6884061 ] } },
{ "type": "Feature", "properties": { "FID": 89, "交差点番号": null, "交差点名": "錦糸町駅前", "Y": 35.6956951, "X": 139.8144233, "Street1": "京葉道路", "street2": "四ツ目通り", "Street3": null, "rank": 2 }, "geometry": { "type": "Point", "coordinates": [ 139.815007945403323, 35.695667532851886 ] } },
{ "type": "Feature", "properties": { "FID": 90, "交差点番号": null, "交差点名": "外神田五丁目", "Y": 35.7029707, "X": 139.7713012, "Street1": "蔵前橋通り", "street2": "中央通り", "Street3": null, "rank": 3 }, "geometry": { "type": "Point", "coordinates": [ 139.771730396350989, 35.702992799898112 ] } },
{ "type": "Feature", "properties": { "FID": 91, "交差点番号": null, "交差点名": "青戸八丁目", "Y": 35.7573511, "X": 139.8538953, "Street1": "水戸街道", "street2": "環七通り", "Street3": null, "rank": 2 }, "geometry": { "type": "Point", "coordinates": [ 139.854511804393155, 35.757389152530074 ] } },
{ "type": "Feature", "properties": { "FID": 92, "交差点番号": null, "交差点名": "小滝橋", "Y": 35.7096543, "X": 139.6913361, "Street1": "早稲田通り", "street2": "小滝橋通り", "Street3": null, "rank": 2 }, "geometry": { "type": "Point", "coordinates": [ 139.693952506945976, 35.709620246160426 ] } },
{ "type": "Feature", "properties": { "FID": 93, "交差点番号": null, "交差点名": "大森警察署", "Y": 35.5737273, "X": 139.7314081, "Street1": "第一京浜", "street2": "産業道路", "Street3": null, "rank": 2 }, "geometry": { "type": "Point", "coordinates": [ 139.733919180093466, 35.574019986883826 ] } },
{ "type": "Feature", "properties": { "FID": 94, "交差点番号": null, "交差点名": "田園調布警察署前", "Y": 35.5890273, "X": 139.677063, "Street1": "中原街道", "street2": "環八通り", "Street3": null, "rank": 2 }, "geometry": { "type": "Point", "coordinates": [ 139.67785106314173, 35.58901653847083 ] } },
{ "type": "Feature", "properties": { "FID": 95, "交差点番号": null, "交差点名": "柿の木坂陸橋", "Y": 35.6204952, "X": 139.6791108, "Street1": "目黒通り", "street2": "環七通り", "Street3": null, "rank": 2 }, "geometry": { "type": "Point", "coordinates": [ 139.680393104802391, 35.620520704305328 ] } },
{ "type": "Feature", "properties": { "FID": 96, "交差点番号": null, "交差点名": "五本木", "Y": 35.6322291, "X": 139.6860323, "Street1": "駒沢通り", "street2": "鮫洲大山線（環状6.5号線）", "Street3": null, "rank": 3 }, "geometry": { "type": "Point", "coordinates": [ 139.686749775318219, 35.632270883748639 ] } },
{ "type": "Feature", "properties": { "FID": 97, "交差点番号": null, "交差点名": "三宿", "Y": 35.6472061, "X": 139.6773703, "Street1": "玉川通り", "street2": "鮫洲大山線（環状6.5号線）", "Street3": null, "rank": 2 }, "geometry": { "type": "Point", "coordinates": [ 139.678007761070376, 35.647248578061259 ] } },
{ "type": "Feature", "properties": { "FID": 98, "交差点番号": null, "交差点名": "三軒茶屋", "Y": 35.6435421, "X": 139.6705273, "Street1": "玉川通り", "street2": "世田谷通り", "Street3": "茶沢通り", "rank": 2 }, "geometry": { "type": "Point", "coordinates": [ 139.671221520086078, 35.643598263424487 ] } },
{ "type": "Feature", "properties": { "FID": 99, "交差点番号": null, "交差点名": "要町一丁目", "Y": 35.7331331, "X": 139.6987343, "Street1": "要町通り", "street2": "山手通り", "Street3": null, "rank": 2 }, "geometry": { "type": "Point", "coordinates": [ 139.699337071858935, 35.733158790959905 ] } },
{ "type": "Feature", "properties": { "FID": 100, "交差点番号": null, "交差点名": "熊野町", "Y": 35.7412231, "X": 139.7061523, "Street1": "川越街道", "street2": "山手通り", "Street3": null, "rank": 1 }, "geometry": { "type": "Point", "coordinates": [ 139.70677333777337, 35.741201878655573 ] } },
{ "type": "Feature", "properties": { "FID": 101, "交差点番号": null, "交差点名": "赤羽", "Y": 35.7837551, "X": 139.7199283, "Street1": "北本通り", "street2": "環八通り", "Street3": null, "rank": 2 }, "geometry": { "type": "Point", "coordinates": [ 139.720562672978417, 35.783738388245467 ] } },
{ "type": "Feature", "properties": { "FID": 102, "交差点番号": null, "交差点名": "練馬中央陸橋", "Y": 35.7447435, "X": 139.6279455, "Street1": "目白通り", "street2": "環八通り", "Street3": null, "rank": 2 }, "geometry": { "type": "Point", "coordinates": [ 139.628824493666059, 35.74472549222989 ] } },
{ "type": "Feature", "properties": { "FID": 103, "交差点番号": null, "交差点名": "豊玉陸橋", "Y": 35.7345397, "X": 139.6622284, "Street1": "目白通り", "street2": "環七通り", "Street3": null, "rank": 2 }, "geometry": { "type": "Point", "coordinates": [ 139.662647179006996, 35.734858322838882 ] } },
{ "type": "Feature", "properties": { "FID": 104, "交差点番号": null, "交差点名": "谷原", "Y": 35.7491863, "X": 139.6160291, "Street1": "目白通り", "street2": "笹目通り", "Street3": "富士街道", "rank": 2 }, "geometry": { "type": "Point", "coordinates": [ 139.618540645655827, 35.749173347594756 ] } },
{ "type": "Feature", "properties": { "FID": 105, "交差点番号": null, "交差点名": "大和町", "Y": 35.7624169, "X": 139.7052572, "Street1": "中山道", "street2": "環七通り", "Street3": null, "rank": 1 }, "geometry": { "type": "Point", "coordinates": [ 139.705581398155317, 35.761292662157771 ] } },
{ "type": "Feature", "properties": { "FID": 106, "交差点番号": null, "交差点名": "板橋中央陸橋", "Y": 35.7551481, "X": 139.6874363, "Street1": "川越街道", "street2": "環七通り", "Street3": null, "rank": 1 }, "geometry": { "type": "Point", "coordinates": [ 139.688010317069143, 35.755129978816925 ] } },
{ "type": "Feature", "properties": { "FID": 107, "交差点番号": null, "交差点名": "高円寺陸橋", "Y": 35.698002, "X": 139.636217, "Street1": "青梅街道", "street2": "環七通り", "Street3": null, "rank": 2 }, "geometry": { "type": "Point", "coordinates": [ 139.654689768571131, 35.698008020108688 ] } },
{ "type": "Feature", "properties": { "FID": 108, "交差点番号": null, "交差点名": "長島町交差点", "Y": 35.6676522, "X": 139.8720995, "Street1": "葛西橋通り", "street2": "環七通り", "Street3": null, "rank": 3 }, "geometry": { "type": "Point", "coordinates": [ 139.87355421350739, 35.667617982277534 ] } },
{ "type": "Feature", "properties": { "FID": 109, "交差点番号": null, "交差点名": "日曹橋", "Y": 35.6699435, "X": 139.8248606, "Street1": "永代通り", "street2": "明治通り", "Street3": null, "rank": 2 }, "geometry": { "type": "Point", "coordinates": [ 139.825770554569885, 35.669968517308646 ] } },
{ "type": "Feature", "properties": { "FID": 110, "交差点番号": null, "交差点名": "亀戸駅前", "Y": 35.6965901, "X": 139.8251253, "Street1": "京葉道路", "street2": "明治通り", "Street3": null, "rank": 2 }, "geometry": { "type": "Point", "coordinates": [ 139.825834288317338, 35.696584464724801 ] } },
{ "type": "Feature", "properties": { "FID": 111, "交差点番号": null, "交差点名": "馬道", "Y": 35.7157981, "X": 139.7979923, "Street1": "言問通り", "street2": "馬道通り", "Street3": null, "rank": 3 }, "geometry": { "type": "Point", "coordinates": [ 139.798643022871801, 35.715824196595996 ] } },
{ "type": "Feature", "properties": { "FID": 112, "交差点番号": null, "交差点名": "青物横丁", "Y": 35.6096443, "X": 139.7398691, "Street1": "第一京浜", "street2": "池上通り", "Street3": null, "rank": 3 }, "geometry": { "type": "Point", "coordinates": [ 139.742449145545692, 35.609652128900635 ] } },
{ "type": "Feature", "properties": { "FID": 113, "交差点番号": null, "交差点名": "入船橋", "Y": 35.670229, "X": 139.7743233, "Street1": "新大橋通り", "street2": "佃大橋通り", "Street3": null, "rank": 2 }, "geometry": { "type": "Point", "coordinates": [ 139.775028565857269, 35.670169103121907 ] } },
{ "type": "Feature", "properties": { "FID": 114, "交差点番号": null, "交差点名": "八丁堀", "Y": 35.6766451, "X": 139.7774503, "Street1": "新大橋通り", "street2": "八重洲通り", "Street3": null, "rank": 2 }, "geometry": { "type": "Point", "coordinates": [ 139.778049228452488, 35.676626129067699 ] } },
{ "type": "Feature", "properties": { "FID": 115, "交差点番号": null, "交差点名": "馬場先門", "Y": 35.6784991, "X": 139.7603343, "Street1": "鍛冶橋通り", "street2": "日比谷通り", "Street3": null, "rank": 1 }, "geometry": { "type": "Point", "coordinates": [ 139.760979698237833, 35.678563027403236 ] } },
{ "type": "Feature", "properties": { "FID": 116, "交差点番号": null, "交差点名": "東京消防庁前", "Y": 35.6893841, "X": 139.7602013, "Street1": "内堀通り", "street2": "千代田通り", "Street3": null, "rank": 2 }, "geometry": { "type": "Point", "coordinates": [ 139.760798178462267, 35.6894570987169 ] } },
{ "type": "Feature", "properties": { "FID": 117, "交差点番号": null, "交差点名": "平川門", "Y": 35.690367, "X": 139.740367, "Street1": "白山通り", "street2": "内堀通り", "Street3": null, "rank": 2 }, "geometry": { "type": "Point", "coordinates": [ 139.758840916885561, 35.690368337460072 ] } },
{ "type": "Feature", "properties": { "FID": 118, "交差点番号": null, "交差点名": "竹橋", "Y": 35.6906971, "X": 139.7557703, "Street1": "内堀通り", "street2": "代官町通り", "Street3": null, "rank": 2 }, "geometry": { "type": "Point", "coordinates": [ 139.75643887607967, 35.690744655387327 ] } },
{ "type": "Feature", "properties": { "FID": 119, "交差点番号": null, "交差点名": "赤坂見附", "Y": 35.6781441, "X": 139.7358673, "Street1": "青山通り", "street2": "外堀通り", "Street3": null, "rank": 1 }, "geometry": { "type": "Point", "coordinates": [ 139.736488416553925, 35.678130878191197 ] } },
{ "type": "Feature", "properties": { "FID": 120, "交差点番号": null, "交差点名": "水道橋", "Y": 35.7023832, "X": 139.754677, "Street1": "白山通り", "street2": "外堀通り", "Street3": null, "rank": 1 }, "geometry": { "type": "Point", "coordinates": [ 139.755399984180769, 35.70235943832531 ] } },
{ "type": "Feature", "properties": { "FID": null, "交差点番号": null, "交差点名": "淡島", "Y": null, "X": null, "Street1": "淡島通り", "street2": "梅丘通り", "Street3": null, "rank": 3 }, "geometry": { "type": "Point", "coordinates": [ 139.67248731235793, 35.653651203557047 ] } },
{ "type": "Feature", "properties": { "FID": null, "交差点番号": null, "交差点名": "新町1丁目", "Y": null, "X": null, "Street1": "玉川通り", "street2": "旧大山街道", "Street3": null, "rank": 4 }, "geometry": { "type": "Point", "coordinates": [ 139.653694554216514, 35.630393911496107 ] } },
{ "type": "Feature", "properties": { "FID": null, "交差点番号": null, "交差点名": "京橋宝町", "Y": null, "X": null, "Street1": "昭和通り", "street2": "鍛冶橋通り", "Street3": null, "rank": 2 }, "geometry": { "type": "Point", "coordinates": [ 139.771846441782913, 35.675322720446403 ] } },
{ "type": "Feature", "properties": { "FID": null, "交差点番号": null, "交差点名": "八丁堀駅前", "Y": null, "X": null, "Street1": "新大橋通り", "street2": "鍛冶橋通り", "Street3": null, "rank": 3 }, "geometry": { "type": "Point", "coordinates": [ 139.776940365384007, 35.674593165016404 ] } },
{ "type": "Feature", "properties": { "FID": null, "交差点番号": null, "交差点名": "蛎殻町", "Y": null, "X": null, "Street1": "新大橋通り", "street2": "平成通り", "Street3": null, "rank": 3 }, "geometry": { "type": "Point", "coordinates": [ 139.781648169016989, 35.682522988585816 ] } },
{ "type": "Feature", "properties": { "FID": null, "交差点番号": null, "交差点名": "人形町", "Y": null, "X": null, "Street1": "人形町通り", "street2": "金座通り", "Street3": null, "rank": 4 }, "geometry": { "type": "Point", "coordinates": [ 139.782295509665943, 35.686303784922337 ] } },
{ "type": "Feature", "properties": { "FID": null, "交差点番号": null, "交差点名": "小伝馬町", "Y": null, "X": null, "Street1": "江戸通り", "street2": "人形町通り", "Street3": null, "rank": 3 }, "geometry": { "type": "Point", "coordinates": [ 139.778474419539094, 35.690725209066493 ] } },
{ "type": "Feature", "properties": { "FID": null, "交差点番号": null, "交差点名": "須田町", "Y": null, "X": null, "Street1": "中央通り", "street2": "靖国通り", "Street3": null, "rank": 3 }, "geometry": { "type": "Point", "coordinates": [ 139.770437476386263, 35.695788281192591 ] } },
{ "type": "Feature", "properties": { "FID": null, "交差点番号": null, "交差点名": "淡路町", "Y": null, "X": null, "Street1": "靖国通り", "street2": "外堀通り", "Street3": null, "rank": 3 }, "geometry": { "type": "Point", "coordinates": [ 139.767439738528481, 35.695371470743687 ] } },
{ "type": "Feature", "properties": { "FID": null, "交差点番号": null, "交差点名": "小川町", "Y": null, "X": null, "Street1": "靖国通り", "street2": "本郷通り", "Street3": null, "rank": 3 }, "geometry": { "type": "Point", "coordinates": [ 139.765298833443126, 35.694636080731286 ] } },
{ "type": "Feature", "properties": { "FID": null, "交差点番号": null, "交差点名": "駒形橋西詰", "Y": null, "X": null, "Street1": "江戸通り", "street2": "浅草通り", "Street3": null, "rank": 4 }, "geometry": { "type": "Point", "coordinates": [ 139.796174536530231, 35.708793871569796 ] } },
{ "type": "Feature", "properties": { "FID": null, "交差点番号": null, "交差点名": "吾妻橋", "Y": null, "X": null, "Street1": "江戸通り", "street2": "雷門通り", "Street3": "馬道通り", "rank": 3 }, "geometry": { "type": "Point", "coordinates": [ 139.797750534113447, 35.710706848074182 ] } },
{ "type": "Feature", "properties": { "FID": null, "交差点番号": null, "交差点名": "田原町", "Y": null, "X": null, "Street1": "国際通り", "street2": "浅草通り", "Street3": null, "rank": 4 }, "geometry": { "type": "Point", "coordinates": [ 139.791457556240317, 35.709696754045787 ] } },
{ "type": "Feature", "properties": { "FID": null, "交差点番号": null, "交差点名": "稲荷町", "Y": null, "X": null, "Street1": "浅草通り", "street2": "清州橋通り", "Street3": null, "rank": 5 }, "geometry": { "type": "Point", "coordinates": [ 139.783093050995404, 35.711243335174686 ] } },
{ "type": "Feature", "properties": { "FID": null, "交差点番号": null, "交差点名": "入谷", "Y": null, "X": null, "Street1": "昭和通り", "street2": "言問通り", "Street3": null, "rank": 2 }, "geometry": { "type": "Point", "coordinates": [ 139.783847310322841, 35.719817009708862 ] } },
{ "type": "Feature", "properties": { "FID": null, "交差点番号": null, "交差点名": "豊洲市場前", "Y": null, "X": null, "Street1": "環二通り", "street2": null, "Street3": null, "rank": 5 }, "geometry": { "type": "Point", "coordinates": [ 139.784735141225383, 35.645035309349865 ] } },
{ "type": "Feature", "properties": { "FID": null, "交差点番号": null, "交差点名": "月島警察所前", "Y": null, "X": null, "Street1": "環二通り", "street2": null, "Street3": null, "rank": 5 }, "geometry": { "type": "Point", "coordinates": [ 139.777925665444485, 35.652607328436311 ] } },
{ "type": "Feature", "properties": { "FID": null, "交差点番号": null, "交差点名": "勝どき陸橋", "Y": null, "X": null, "Street1": "環二通り", "street2": "清澄通り", "Street3": null, "rank": 4 }, "geometry": { "type": "Point", "coordinates": [ 139.773602480970538, 35.656489308962037 ] } },
{ "type": "Feature", "properties": { "FID": null, "交差点番号": null, "交差点名": "汐先橋", "Y": null, "X": null, "Street1": "環二通り", "street2": "海岸通り", "Street3": null, "rank": 3 }, "geometry": { "type": "Point", "coordinates": [ 139.763143092266318, 35.663775787291776 ] } },
{ "type": "Feature", "properties": { "FID": null, "交差点番号": null, "交差点名": "西新橋", "Y": null, "X": null, "Street1": "日比谷通り", "street2": "外堀通り", "Street3": null, "rank": 2 }, "geometry": { "type": "Point", "coordinates": [ 139.755004535622902, 35.668590025850456 ] } },
{ "type": "Feature", "properties": { "FID": null, "交差点番号": null, "交差点名": "内幸町", "Y": null, "X": null, "Street1": "日比谷通り", "street2": "国会通り", "Street3": null, "rank": 4 }, "geometry": { "type": "Point", "coordinates": [ 139.756159267253395, 35.670708132155447 ] } },
{ "type": "Feature", "properties": { "FID": null, "交差点番号": null, "交差点名": "財務省上", "Y": null, "X": null, "Street1": "六本木通り", "street2": "国会通り", "Street3": null, "rank": 4 }, "geometry": { "type": "Point", "coordinates": [ 139.747905045028489, 35.674048931256728 ] } },
{ "type": "Feature", "properties": { "FID": null, "交差点番号": null, "交差点名": "隼町", "Y": null, "X": null, "Street1": "青山通り", "street2": "半蔵門駅通り", "Street3": null, "rank": 5 }, "geometry": { "type": "Point", "coordinates": [ 139.743077025131413, 35.679403018576522 ] } },
{ "type": "Feature", "properties": { "FID": null, "交差点番号": null, "交差点名": "平河町", "Y": null, "X": null, "Street1": "青山通り", "street2": "貝坂通り", "Street3": null, "rank": 6 }, "geometry": { "type": "Point", "coordinates": [ 139.740151269781961, 35.678834132657073 ] } },
{ "type": "Feature", "properties": { "FID": null, "交差点番号": null, "交差点名": "麹町4丁目", "Y": null, "X": null, "Street1": "新宿通り", "street2": "日テレ通り", "Street3": "プリンス通り", "rank": 4 }, "geometry": { "type": "Point", "coordinates": [ 139.738001817112945, 35.683934079721993 ] } },
{ "type": "Feature", "properties": { "FID": null, "交差点番号": null, "交差点名": "市ヶ谷見附", "Y": null, "X": null, "Street1": "靖国通り", "street2": "外堀通り", "Street3": null, "rank": 3 }, "geometry": { "type": "Point", "coordinates": [ 139.735211132266841, 35.692163122694609 ] } },
{ "type": "Feature", "properties": { "FID": null, "交差点番号": null, "交差点名": "市ヶ谷駅前", "Y": null, "X": null, "Street1": "靖国通り", "street2": "日テレ通り", "Street3": null, "rank": 4 }, "geometry": { "type": "Point", "coordinates": [ 139.735979435746884, 35.69114520826664 ] } },
{ "type": "Feature", "properties": { "FID": null, "交差点番号": null, "交差点名": "新宿7丁目", "Y": null, "X": null, "Street1": "明治通り", "street2": "職安通り", "Street3": "抜弁天通", "rank": 2 }, "geometry": { "type": "Point", "coordinates": [ 139.70747646408114, 35.697895101479787 ] } },
{ "type": "Feature", "properties": { "FID": null, "交差点番号": null, "交差点名": "鬼王神社前", "Y": null, "X": null, "Street1": "職安通り", "street2": "区役所通り", "Street3": null, "rank": 2 }, "geometry": { "type": "Point", "coordinates": [ 139.705043300824059, 35.698210845775421 ] } },
{ "type": "Feature", "properties": { "FID": null, "交差点番号": null, "交差点名": "新宿5丁目", "Y": null, "X": null, "Street1": "明治通り", "street2": "靖国通り", "Street3": null, "rank": 3 }, "geometry": { "type": "Point", "coordinates": [ 139.705790668536906, 35.692478656195647 ] } },
{ "type": "Feature", "properties": { "FID": null, "交差点番号": null, "交差点名": "新宿3丁目", "Y": null, "X": null, "Street1": "明治通り", "street2": "新宿通り", "Street3": null, "rank": 2 }, "geometry": { "type": "Point", "coordinates": [ 139.704842197598481, 35.690866924151848 ] } },
{ "type": "Feature", "properties": { "FID": null, "交差点番号": null, "交差点名": "新宿4丁目", "Y": null, "X": null, "Street1": "明治通り", "street2": "甲州街道", "Street3": null, "rank": 4 }, "geometry": { "type": "Point", "coordinates": [ 139.704207787391823, 35.68976991569572 ] } },
{ "type": "Feature", "properties": { "FID": null, "交差点番号": null, "交差点名": "熊野神社前", "Y": null, "X": null, "Street1": "十二社通り", "street2": "方南通り", "Street3": "北通り", "rank": 4 }, "geometry": { "type": "Point", "coordinates": [ 139.687342596702763, 35.691087759901798 ] } },
{ "type": "Feature", "properties": { "FID": null, "交差点番号": null, "交差点名": "成子坂下", "Y": null, "X": null, "Street1": "青梅街道", "street2": "十二社通り", "Street3": null, "rank": 4 }, "geometry": { "type": "Point", "coordinates": [ 139.688379540144666, 35.695780982968785 ] } },
{ "type": "Feature", "properties": { "FID": null, "交差点番号": null, "交差点名": "淀橋", "Y": null, "X": null, "Street1": "青梅街道", "street2": "税務署通り", "Street3": null, "rank": 5 }, "geometry": { "type": "Point", "coordinates": [ 139.686922193671506, 35.696323724475853 ] } },
{ "type": "Feature", "properties": { "FID": null, "交差点番号": null, "交差点名": "北新宿百人町", "Y": null, "X": null, "Street1": "税務署通り", "street2": "小滝橋通り", "Street3": "職安通り", "rank": 4 }, "geometry": { "type": "Point", "coordinates": [ 139.697465336898944, 35.69793839856078 ] } },
{ "type": "Feature", "properties": { "FID": null, "交差点番号": null, "交差点名": "新宿大ガード西", "Y": null, "X": null, "Street1": "青梅街道", "street2": "小滝橋通り", "Street3": null, "rank": 2 }, "geometry": { "type": "Point", "coordinates": [ 139.699145573812444, 35.693587660821592 ] } },
{ "type": "Feature", "properties": { "FID": null, "交差点番号": null, "交差点名": "北新宿1丁目", "Y": null, "X": null, "Street1": "小滝橋通り", "street2": "大久保通り", "Street3": null, "rank": 5 }, "geometry": { "type": "Point", "coordinates": [ 139.695225178084911, 35.701890714660166 ] } },
{ "type": "Feature", "properties": { "FID": null, "交差点番号": null, "交差点名": "宮下", "Y": null, "X": null, "Street1": "山手通り", "street2": "大久保通り", "Street3": null, "rank": 3 }, "geometry": { "type": "Point", "coordinates": [ 139.682823458662284, 35.701035438105954 ] } },
{ "type": "Feature", "properties": { "FID": null, "交差点番号": null, "交差点名": "杉山公園", "Y": null, "X": null, "Street1": "青梅街道", "street2": "中野通り", "Street3": null, "rank": 4 }, "geometry": { "type": "Point", "coordinates": [ 139.66741477366125, 35.697405123783099 ] } },
{ "type": "Feature", "properties": { "FID": null, "交差点番号": null, "交差点名": "中野五差路", "Y": null, "X": null, "Street1": "中野通り", "street2": "大久保通り", "Street3": null, "rank": 4 }, "geometry": { "type": "Point", "coordinates": [ 139.665667979701965, 35.702723506107418 ] } },
{ "type": "Feature", "properties": { "FID": null, "交差点番号": null, "交差点名": "新井", "Y": null, "X": null, "Street1": "早稲田通り", "street2": "中野通り", "Street3": null, "rank": 4 }, "geometry": { "type": "Point", "coordinates": [ 139.664944848986778, 35.709961345102471 ] } },
{ "type": "Feature", "properties": { "FID": null, "交差点番号": null, "交差点名": "大和陸橋", "Y": null, "X": null, "Street1": "環七通り", "street2": "早稲田通り", "Street3": null, "rank": 3 }, "geometry": { "type": "Point", "coordinates": [ 139.654177031860911, 35.709635790236526 ] } },
{ "type": "Feature", "properties": { "FID": null, "交差点番号": null, "交差点名": "上落合2丁目", "Y": null, "X": null, "Street1": "山手通り", "street2": "早稲田通り", "Street3": null, "rank": 4 }, "geometry": { "type": "Point", "coordinates": [ 139.684630598314186, 35.710352262782806 ] } },
{ "type": "Feature", "properties": { "FID": null, "交差点番号": null, "交差点名": "中落合2丁目", "Y": null, "X": null, "Street1": "山手通り", "street2": "新目白通り", "Street3": null, "rank": 4 }, "geometry": { "type": "Point", "coordinates": [ 139.68922123337282, 35.719043574124598 ] } },
{ "type": "Feature", "properties": { "FID": null, "交差点番号": null, "交差点名": "南長崎1丁目", "Y": null, "X": null, "Street1": "山手通り", "street2": "目白通り", "Street3": null, "rank": 5 }, "geometry": { "type": "Point", "coordinates": [ 139.692629203711505, 35.722494253290556 ] } },
{ "type": "Feature", "properties": { "FID": null, "交差点番号": null, "交差点名": "西落合1丁目", "Y": null, "X": null, "Street1": "目白通り", "street2": "新青梅街道", "Street3": "新目白通り", "rank": 3 }, "geometry": { "type": "Point", "coordinates": [ 139.684057630265499, 35.722635451976629 ] } },
{ "type": "Feature", "properties": { "FID": null, "交差点番号": null, "交差点名": "練馬警察署南", "Y": null, "X": null, "Street1": "目白通り", "street2": "庚申通り", "Street3": null, "rank": 5 }, "geometry": { "type": "Point", "coordinates": [ 139.654917514600015, 35.735360251620456 ] } },
{ "type": "Feature", "properties": { "FID": null, "交差点番号": null, "交差点名": "豊玉北6丁目", "Y": null, "X": null, "Street1": "目白通り", "street2": "千川通り", "Street3": null, "rank": 4 }, "geometry": { "type": "Point", "coordinates": [ 139.649999737149727, 35.73687215836992 ] } },
{ "type": "Feature", "properties": { "FID": null, "交差点番号": null, "交差点名": "鷺宮4丁目", "Y": null, "X": null, "Street1": "新青梅街道", "street2": "中杉通り", "Street3": null, "rank": 4 }, "geometry": { "type": "Point", "coordinates": [ 139.638638415173375, 35.726332277840712 ] } },
{ "type": "Feature", "properties": { "FID": null, "交差点番号": null, "交差点名": "丸山陸橋", "Y": null, "X": null, "Street1": "環七通り", "street2": "新青梅街道", "Street3": null, "rank": 4 }, "geometry": { "type": "Point", "coordinates": [ 139.653782441903303, 35.722907766702392 ] } },
{ "type": "Feature", "properties": { "FID": null, "交差点番号": null, "交差点名": "蓮華寺北", "Y": null, "X": null, "Street1": "新青梅街道", "street2": "中野通り", "Street3": null, "rank": 5 }, "geometry": { "type": "Point", "coordinates": [ 139.673699581131274, 35.723501604137319 ] } },
{ "type": "Feature", "properties": { "FID": null, "交差点番号": null, "交差点名": "南長崎6丁目", "Y": null, "X": null, "Street1": "目白通り", "street2": "中野通り", "Street3": null, "rank": 5 }, "geometry": { "type": "Point", "coordinates": [ 139.677542247565128, 35.729558878944488 ] } },
{ "type": "Feature", "properties": { "FID": null, "交差点番号": null, "交差点名": "井草3丁目", "Y": null, "X": null, "Street1": "環八通り", "street2": "新青梅街道", "Street3": null, "rank": 5 }, "geometry": { "type": "Point", "coordinates": [ 139.614469727193779, 35.72782020982519 ] } },
{ "type": "Feature", "properties": { "FID": null, "交差点番号": null, "交差点名": "清水3丁目", "Y": null, "X": null, "Street1": "環八通り", "street2": "早稲田通り", "Street3": null, "rank": 5 }, "geometry": { "type": "Point", "coordinates": [ 139.614144302655404, 35.719095285677831 ] } },
{ "type": "Feature", "properties": { "FID": null, "交差点番号": null, "交差点名": "外苑前", "Y": null, "X": null, "Street1": "青山通り", "street2": "スタジアム通り", "Street3": null, "rank": 3 }, "geometry": { "type": "Point", "coordinates": [ 139.716904389494431, 35.670150643573891 ] } },
{ "type": "Feature", "properties": { "FID": null, "交差点番号": null, "交差点名": "北参道", "Y": null, "X": null, "Street1": "明治通り", "street2": null, "Street3": null, "rank": 5 }, "geometry": { "type": "Point", "coordinates": [ 139.704518902026649, 35.680365191220382 ] } },
{ "type": "Feature", "properties": { "FID": null, "交差点番号": null, "交差点名": "外苑橋", "Y": null, "X": null, "Street1": "外苑西通り", "street2": null, "Street3": null, "rank": 5 }, "geometry": { "type": "Point", "coordinates": [ 139.713607499419879, 35.679773895388514 ] } },
{ "type": "Feature", "properties": { "FID": null, "交差点番号": null, "交差点名": "大京町", "Y": null, "X": null, "Street1": "外苑西通り", "street2": null, "Street3": null, "rank": 5 }, "geometry": { "type": "Point", "coordinates": [ 139.715196173711433, 35.682178238742047 ] } },
{ "type": "Feature", "properties": { "FID": null, "交差点番号": null, "交差点名": "四谷4丁目", "Y": null, "X": null, "Street1": "新宿通り", "street2": "外苑西通り", "Street3": "甲州街道", "rank": 3 }, "geometry": { "type": "Point", "coordinates": [ 139.715914921564604, 35.687479837297467 ] } },
{ "type": "Feature", "properties": { "FID": null, "交差点番号": null, "交差点名": "赤坂地区総合支所前", "Y": null, "X": null, "Street1": "青山通り", "street2": "薬研坂", "Street3": null, "rank": 4 }, "geometry": { "type": "Point", "coordinates": [ 139.730956928422785, 35.674848103276808 ] } },
{ "type": "Feature", "properties": { "FID": null, "交差点番号": null, "交差点名": "乃木坂陸橋", "Y": null, "X": null, "Street1": "赤坂通り", "street2": "乃木坂", "Street3": null, "rank": 5 }, "geometry": { "type": "Point", "coordinates": [ 139.727594606744731, 35.667762294371244 ] } },
{ "type": "Feature", "properties": { "FID": null, "交差点番号": null, "交差点名": "恵比寿3丁目", "Y": null, "X": null, "Street1": "外苑西通り", "street2": "北里通り", "Street3": "恵比寿通り", "rank": 3 }, "geometry": { "type": "Point", "coordinates": [ 139.721866681782501, 35.644806812894515 ] } },
{ "type": "Feature", "properties": { "FID": null, "交差点番号": null, "交差点名": "厚生中央病院", "Y": null, "X": null, "Street1": "目黒三田通り", "street2": "プラタナス通り", "Street3": null, "rank": 4 }, "geometry": { "type": "Point", "coordinates": [ 139.712081922923886, 35.640593167623145 ] } },
{ "type": "Feature", "properties": { "FID": null, "交差点番号": null, "交差点名": "恵比寿南一公園前", "Y": null, "X": null, "Street1": "目黒三田通り", "street2": "新茶屋坂", "Street3": "くすの木通り", "rank": 4 }, "geometry": { "type": "Point", "coordinates": [ 139.711424984992334, 35.642667243643302 ] } },
{ "type": "Feature", "properties": { "FID": null, "交差点番号": null, "交差点名": "住吉町", "Y": null, "X": null, "Street1": "靖国通り", "street2": "余丁町通り", "Street3": null, "rank": 3 }, "geometry": { "type": "Point", "coordinates": [ 139.721330771413903, 35.692316106558849 ] } },
{ "type": "Feature", "properties": { "FID": null, "交差点番号": null, "交差点名": "抜弁天", "Y": null, "X": null, "Street1": "抜弁天通り", "street2": "余丁町通り", "Street3": null, "rank": 4 }, "geometry": { "type": "Point", "coordinates": [ 139.713011037704916, 35.697735323814975 ] } },
{ "type": "Feature", "properties": { "FID": null, "交差点番号": null, "交差点名": "若松町", "Y": null, "X": null, "Street1": "大久保通り", "street2": "抜弁天通り", "Street3": "環状4号線", "rank": 4 }, "geometry": { "type": "Point", "coordinates": [ 139.7208684848367, 35.700165394029653 ] } },
{ "type": "Feature", "properties": { "FID": null, "交差点番号": null, "交差点名": "市谷柳町", "Y": null, "X": null, "Street1": "外苑東通り", "street2": "大久保通り", "Street3": null, "rank": 3 }, "geometry": { "type": "Point", "coordinates": [ 139.726107425537208, 35.699399416430659 ] } },
{ "type": "Feature", "properties": { "FID": null, "交差点番号": null, "交差点名": "合羽坂", "Y": null, "X": null, "Street1": "外苑東通り", "street2": "合羽坂", "Street3": null, "rank": 4 }, "geometry": { "type": "Point", "coordinates": [ 139.724079681459472, 35.692892207228532 ] } },
{ "type": "Feature", "properties": { "FID": null, "交差点番号": null, "交差点名": "神楽坂上", "Y": null, "X": null, "Street1": "大久保通り", "street2": "神楽坂", "Street3": null, "rank": 3 }, "geometry": { "type": "Point", "coordinates": [ 139.738223234268759, 35.702240765360507 ] } },
{ "type": "Feature", "properties": { "FID": null, "交差点番号": null, "交差点名": "神楽坂下", "Y": null, "X": null, "Street1": "外堀通り", "street2": "神楽坂", "Street3": null, "rank": 3 }, "geometry": { "type": "Point", "coordinates": [ 139.742725649166175, 35.700443983868553 ] } },
{ "type": "Feature", "properties": { "FID": null, "交差点番号": null, "交差点名": "弁天町", "Y": null, "X": null, "Street1": "外苑東通り", "street2": "早稲田通り", "Street3": null, "rank": 4 }, "geometry": { "type": "Point", "coordinates": [ 139.72697451229223, 35.704715783560275 ] } },
{ "type": "Feature", "properties": { "FID": null, "交差点番号": null, "交差点名": "鶴巻町", "Y": null, "X": null, "Street1": "外苑東通り", "street2": "新目白通り", "Street3": null, "rank": 2 }, "geometry": { "type": "Point", "coordinates": [ 139.727062485577733, 35.709585907594168 ] } },
{ "type": "Feature", "properties": { "FID": null, "交差点番号": null, "交差点名": "高戸橋", "Y": null, "X": null, "Street1": "明治通り", "street2": "新目白通り", "Street3": null, "rank": 3 }, "geometry": { "type": "Point", "coordinates": [ 139.711380445483712, 35.714330448347177 ] } },
{ "type": "Feature", "properties": { "FID": null, "交差点番号": null, "交差点名": "馬場口", "Y": null, "X": null, "Street1": "明治通り", "street2": "早稲田通り", "Street3": null, "rank": 4 }, "geometry": { "type": "Point", "coordinates": [ 139.710011526324706, 35.711413698094596 ] } },
{ "type": "Feature", "properties": { "FID": null, "交差点番号": null, "交差点名": "笹塚", "Y": null, "X": null, "Street1": "甲州街道", "street2": "中野通り", "Street3": null, "rank": 3 }, "geometry": { "type": "Point", "coordinates": [ 139.670843129495296, 35.675412775179311 ] } },
{ "type": "Feature", "properties": { "FID": null, "交差点番号": null, "交差点名": "大山", "Y": null, "X": null, "Street1": "井の頭通り", "street2": "鮫津大山線（環状6.5号線）", "Street3": null, "rank": 4 }, "geometry": { "type": "Point", "coordinates": [ 139.672871022765889, 35.668515825881734 ] } },
{ "type": "Feature", "properties": { "FID": null, "交差点番号": null, "交差点名": "大原2丁目", "Y": null, "X": null, "Street1": "環七通り", "street2": "井の頭通り", "Street3": null, "rank": 4 }, "geometry": { "type": "Point", "coordinates": [ 139.661457088023639, 35.669043668425921 ] } },
{ "type": "Feature", "properties": { "FID": null, "交差点番号": null, "交差点名": "方南町", "Y": null, "X": null, "Street1": "環七通り", "street2": "方南通り", "Street3": null, "rank": 3 }, "geometry": { "type": "Point", "coordinates": [ 139.656789091330722, 35.683337814135925 ] } },
{ "type": "Feature", "properties": { "FID": null, "交差点番号": null, "交差点名": "松原", "Y": null, "X": null, "Street1": "甲州街道", "street2": "井の頭通り", "Street3": null, "rank": 4 }, "geometry": { "type": "Point", "coordinates": [ 139.652866148129789, 35.670631686764956 ] } },
{ "type": "Feature", "properties": { "FID": null, "交差点番号": null, "交差点名": "豊洲駅前", "Y": null, "X": null, "Street1": "晴海通り", "street2": "環状3号線", "Street3": null, "rank": 5 }, "geometry": { "type": "Point", "coordinates": [ 139.796543191384615, 35.654537876630215 ] } },
{ "type": "Feature", "properties": { "FID": null, "交差点番号": null, "交差点名": "初見橋", "Y": null, "X": null, "Street1": "清澄通り", "street2": "佃大橋通り", "Street3": null, "rank": 3 }, "geometry": { "type": "Point", "coordinates": [ 139.784828415935152, 35.664422184338846 ] } },
{ "type": "Feature", "properties": { "FID": null, "交差点番号": null, "交差点名": "相生橋", "Y": null, "X": null, "Street1": "清澄通り", "street2": "八重洲通り", "Street3": null, "rank": 4 }, "geometry": { "type": "Point", "coordinates": [ 139.787273763652564, 35.666283208818172 ] } },
{ "type": "Feature", "properties": { "FID": null, "交差点番号": null, "交差点名": "勝どき", "Y": null, "X": null, "Street1": "清澄通り", "street2": "晴海通り", "Street3": null, "rank": 2 }, "geometry": { "type": "Point", "coordinates": [ 139.777699465880858, 35.659306461310557 ] } },
{ "type": "Feature", "properties": { "FID": null, "交差点番号": null, "交差点名": "越中島2丁目", "Y": null, "X": null, "Street1": "清澄通り", "street2": "越中島通り", "Street3": null, "rank": 5 }, "geometry": { "type": "Point", "coordinates": [ 139.791269233335839, 35.669161019425928 ] } },
{ "type": "Feature", "properties": { "FID": null, "交差点番号": null, "交差点名": "深川1丁目", "Y": null, "X": null, "Street1": "葛西橋通り", "street2": "清澄通り", "Street3": null, "rank": 4 }, "geometry": { "type": "Point", "coordinates": [ 139.796180802895009, 35.675081159634239 ] } },
{ "type": "Feature", "properties": { "FID": null, "交差点番号": null, "交差点名": "永代2丁目", "Y": null, "X": null, "Street1": "永代通り", "street2": "葛西橋通り", "Street3": null, "rank": 5 }, "geometry": { "type": "Point", "coordinates": [ 139.791688532187607, 35.673853370508617 ] } },
{ "type": "Feature", "properties": { "FID": null, "交差点番号": null, "交差点名": "東陽6丁目", "Y": null, "X": null, "Street1": "四ツ目通り", "street2": "葛西橋通り", "Street3": null, "rank": 3 }, "geometry": { "type": "Point", "coordinates": [ 139.815993931895434, 35.675753770296545 ] } },
{ "type": "Feature", "properties": { "FID": null, "交差点番号": null, "交差点名": "東陽町駅前", "Y": null, "X": null, "Street1": "永代通り", "street2": "四ツ目通り", "Street3": null, "rank": 5 }, "geometry": { "type": "Point", "coordinates": [ 139.816488377536984, 35.669525399635972 ] } },
{ "type": "Feature", "properties": { "FID": null, "交差点番号": null, "交差点名": "南砂4丁目", "Y": null, "X": null, "Street1": "明治通り", "street2": "葛西橋通り", "Street3": null, "rank": 5 }, "geometry": { "type": "Point", "coordinates": [ 139.826895506058293, 35.674814120936226 ] } },
{ "type": "Feature", "properties": { "FID": null, "交差点番号": null, "交差点名": "境川", "Y": null, "X": null, "Street1": "明治通り", "street2": "清州橋通り", "Street3": null, "rank": 5 }, "geometry": { "type": "Point", "coordinates": [ 139.827182954303453, 35.677115405063347 ] } },
{ "type": "Feature", "properties": { "FID": null, "交差点番号": null, "交差点名": "南砂6丁目", "Y": null, "X": null, "Street1": "葛西橋通り", "street2": "丸八通り", "Street3": null, "rank": 5 }, "geometry": { "type": "Point", "coordinates": [ 139.832962483613954, 35.673436219357114 ] } },
{ "type": "Feature", "properties": { "FID": null, "交差点番号": null, "交差点名": "清澄3丁目", "Y": null, "X": null, "Street1": "清澄通り", "street2": "清州橋通り", "Street3": null, "rank": 4 }, "geometry": { "type": "Point", "coordinates": [ 139.798827712937225, 35.681995928477789 ] } },
{ "type": "Feature", "properties": { "FID": null, "交差点番号": null, "交差点名": "浜町中の橋", "Y": null, "X": null, "Street1": "新大橋通り", "street2": "清州橋通り", "Street3": null, "rank": 4 }, "geometry": { "type": "Point", "coordinates": [ 139.788177437219673, 35.685642869687122 ] } },
{ "type": "Feature", "properties": { "FID": null, "交差点番号": null, "交差点名": "久松町", "Y": null, "X": null, "Street1": "清州橋通り", "street2": "金座通り", "Street3": null, "rank": 5 }, "geometry": { "type": "Point", "coordinates": [ 139.785817006091207, 35.688659925668183 ] } },
{ "type": "Feature", "properties": { "FID": null, "交差点番号": null, "交差点名": "九段坂上", "Y": null, "X": null, "Street1": "靖国通り", "street2": "内堀通り", "Street3": null, "rank": 3 }, "geometry": { "type": "Point", "coordinates": [ 139.746502569775231, 35.694334823159124 ] } },
{ "type": "Feature", "properties": { "FID": null, "交差点番号": null, "交差点名": "田安門", "Y": null, "X": null, "Street1": "靖国通り", "street2": "早稲田通り", "Street3": null, "rank": 4 }, "geometry": { "type": "Point", "coordinates": [ 139.748823305189944, 35.695022027012641 ] } },
{ "type": "Feature", "properties": { "FID": null, "交差点番号": null, "交差点名": "護国寺前", "Y": null, "X": null, "Street1": "不忍通り", "street2": "音羽通り", "Street3": null, "rank": 4 }, "geometry": { "type": "Point", "coordinates": [ 139.726999295113131, 35.720013273625483 ] } },
{ "type": "Feature", "properties": { "FID": null, "交差点番号": null, "交差点名": "目白台2丁目", "Y": null, "X": null, "Street1": "目白通り", "street2": "不忍通り", "Street3": null, "rank": 5 }, "geometry": { "type": "Point", "coordinates": [ 139.718052849626645, 35.716892850106746 ] } },
{ "type": "Feature", "properties": { "FID": null, "交差点番号": null, "交差点名": "千登世橋上", "Y": null, "X": null, "Street1": "目白通り", "street2": "明治通り（アンダーパス）", "Street3": null, "rank": 5 }, "geometry": { "type": "Point", "coordinates": [ 139.713175395781093, 35.719097739669984 ] } },
{ "type": "Feature", "properties": { "FID": null, "交差点番号": null, "交差点名": "池袋六つ又陸橋", "Y": null, "X": null, "Street1": "明治通り", "street2": "春日通り", "Street3": null, "rank": 3 }, "geometry": { "type": "Point", "coordinates": [ 139.716778256797198, 35.73353045920198 ] } },
{ "type": "Feature", "properties": { "FID": null, "交差点番号": null, "交差点名": "仲宿", "Y": null, "X": null, "Street1": "山手通り", "street2": "中山道", "Street3": "鮫洲大山線（環状6.5号線）", "rank": 3 }, "geometry": { "type": "Point", "coordinates": [ 139.708544283658284, 35.752289421563461 ] } },
{ "type": "Feature", "properties": { "FID": null, "交差点番号": null, "交差点名": "志村3丁目", "Y": null, "X": null, "Street1": "中山道", "street2": "環八通り", "Street3": null, "rank": 4 }, "geometry": { "type": "Point", "coordinates": [ 139.690888626221096, 35.780026044442735 ] } },
{ "type": "Feature", "properties": { "FID": null, "交差点番号": null, "交差点名": "志村坂下", "Y": null, "X": null, "Street1": "中山道", "street2": "高島通り", "Street3": null, "rank": 4 }, "geometry": { "type": "Point", "coordinates": [ 139.686459811607023, 35.784770083909791 ] } },
{ "type": "Feature", "properties": { "FID": null, "交差点番号": null, "交差点名": "練馬北町陸橋", "Y": null, "X": null, "Street1": "環八通り", "street2": "川越街道", "Street3": null, "rank": 4 }, "geometry": { "type": "Point", "coordinates": [ 139.664645168218044, 35.763864367892459 ] } },
{ "type": "Feature", "properties": { "FID": null, "交差点番号": null, "交差点名": "和光陸橋", "Y": null, "X": null, "Street1": "川越街道", "street2": "笹目通り", "Street3": null, "rank": 5 }, "geometry": { "type": "Point", "coordinates": [ 139.619585209871843, 35.778375232389322 ] } },
{ "type": "Feature", "properties": { "FID": null, "交差点番号": null, "交差点名": "環八南田中", "Y": null, "X": null, "Street1": "環八通り", "street2": "笹目通り", "Street3": null, "rank": 4 }, "geometry": { "type": "Point", "coordinates": [ 139.614609548594046, 35.733185285345968 ] } },
{ "type": "Feature", "properties": { "FID": null, "交差点番号": null, "交差点名": "中の橋交差点", "Y": null, "X": null, "Street1": "環八通り", "street2": "東八道路", "Street3": null, "rank": 5 }, "geometry": { "type": "Point", "coordinates": [ 139.614449940216275, 35.677251516935193 ] } },
{ "type": "Feature", "properties": { "FID": null, "交差点番号": null, "交差点名": "上高井戸1丁目", "Y": null, "X": null, "Street1": "甲州街道", "street2": "環八通り", "Street3": null, "rank": 4 }, "geometry": { "type": "Point", "coordinates": [ 139.613489633124033, 35.671964684713345 ] } },
{ "type": "Feature", "properties": { "FID": null, "交差点番号": null, "交差点名": "三本杉陸橋", "Y": null, "X": null, "Street1": "環八通り", "street2": "世田谷通り", "Street3": null, "rank": 4 }, "geometry": { "type": "Point", "coordinates": [ 139.621153326389191, 35.637016543750043 ] } },
{ "type": "Feature", "properties": { "FID": null, "交差点番号": null, "交差点名": "若林", "Y": null, "X": null, "Street1": "環七通り", "street2": "世田谷通り", "Street3": null, "rank": 3 }, "geometry": { "type": "Point", "coordinates": [ 139.660842227483073, 35.642531520534476 ] } },
{ "type": "Feature", "properties": { "FID": null, "交差点番号": null, "交差点名": "宮前橋", "Y": null, "X": null, "Street1": "環七通り", "street2": "梅丘通り", "Street3": null, "rank": 4 }, "geometry": { "type": "Point", "coordinates": [ 139.660067897113578, 35.654685670074301 ] } },
{ "type": "Feature", "properties": { "FID": null, "交差点番号": null, "交差点名": "松見坂", "Y": null, "X": null, "Street1": "山手通り", "street2": "淡島通り", "Street3": null, "rank": 3 }, "geometry": { "type": "Point", "coordinates": [ 139.690249038148494, 35.65532084247937 ] } },
{ "type": "Feature", "properties": { "FID": null, "交差点番号": null, "交差点名": "松濤2丁目", "Y": null, "X": null, "Street1": "山手通り", "street2": "松濤文化村ストリート", "Street3": null, "rank": 5 }, "geometry": { "type": "Point", "coordinates": [ 139.690901075929531, 35.657917566975804 ] } },
{ "type": "Feature", "properties": { "FID": null, "交差点番号": null, "交差点名": "中目黒立体交差", "Y": null, "X": null, "Street1": "山手通り", "street2": "駒沢通り", "Street3": null, "rank": 5 }, "geometry": { "type": "Point", "coordinates": [ 139.700761300975358, 35.642665854579931 ] } },
{ "type": "Feature", "properties": { "FID": null, "交差点番号": null, "交差点名": "青葉台1丁目", "Y": null, "X": null, "Street1": "山手通り", "street2": "野沢通り", "Street3": null, "rank": 4 }, "geometry": { "type": "Point", "coordinates": [ 139.6938733740445, 35.647801593000814 ] } },
{ "type": "Feature", "properties": { "FID": null, "交差点番号": null, "交差点名": "代官山交番前", "Y": null, "X": null, "Street1": "旧山手通り", "street2": "八幡通り", "Street3": null, "rank": 3 }, "geometry": { "type": "Point", "coordinates": [ 139.701824845910721, 35.647430800866864 ] } },
{ "type": "Feature", "properties": { "FID": null, "交差点番号": null, "交差点名": "並木橋", "Y": null, "X": null, "Street1": "明治通り", "street2": "八幡通り", "Street3": null, "rank": 3 }, "geometry": { "type": "Point", "coordinates": [ 139.706591655018826, 35.655273468895551 ] } },
{ "type": "Feature", "properties": { "FID": null, "交差点番号": null, "交差点名": "宮益坂下", "Y": null, "X": null, "Street1": "明治通り", "street2": "宮益坂", "Street3": null, "rank": 1 }, "geometry": { "type": "Point", "coordinates": [ 139.702432558555273, 35.659500478698 ] } },
{ "type": "Feature", "properties": { "FID": null, "交差点番号": null, "交差点名": "道玄坂下", "Y": null, "X": null, "Street1": "道玄坂", "street2": "文化村通り", "Street3": null, "rank": 2 }, "geometry": { "type": "Point", "coordinates": [ 139.699456032245848, 35.659469149241673 ] } },
{ "type": "Feature", "properties": { "FID": null, "交差点番号": null, "交差点名": "宮益坂上", "Y": null, "X": null, "Street1": "青山通り", "street2": "宮益坂", "Street3": "美竹通り", "rank": 3 }, "geometry": { "type": "Point", "coordinates": [ 139.706040803920331, 35.660147763797113 ] } },
{ "type": "Feature", "properties": { "FID": null, "交差点番号": null, "交差点名": "神宮前6丁目", "Y": null, "X": null, "Street1": "明治通り", "street2": "神宮通り", "Street3": null, "rank": 5 }, "geometry": { "type": "Point", "coordinates": [ 139.702128791108862, 35.663612780734731 ] } },
{ "type": "Feature", "properties": { "FID": null, "交差点番号": null, "交差点名": "権田原", "Y": null, "X": null, "Street1": "外苑東通り", "street2": "四谷角筈線", "Street3": null, "rank": 3 }, "geometry": { "type": "Point", "coordinates": [ 139.721006293589028, 35.677185476456536 ] } },
{ "type": "Feature", "properties": { "FID": null, "交差点番号": null, "交差点名": "目黒清掃工場入口", "Y": null, "X": null, "Street1": "山手通り", "street2": "新茶屋坂", "Street3": null, "rank": 4 }, "geometry": { "type": "Point", "coordinates": [ 139.705192425976236, 35.63734751277245 ] } },
{ "type": "Feature", "properties": { "FID": null, "交差点番号": null, "交差点名": "西五反田1丁目", "Y": null, "X": null, "Street1": "山手通り", "street2": "第二京浜", "Street3": null, "rank": 4 }, "geometry": { "type": "Point", "coordinates": [ 139.721035688419249, 35.623840513510928 ] } },
{ "type": "Feature", "properties": { "FID": null, "交差点番号": null, "交差点名": "上大崎", "Y": null, "X": null, "Street1": "目黒通り", "street2": "白金トンネル道路（仮）", "Street3": null, "rank": 8 }, "geometry": { "type": "Point", "coordinates": [ 139.719633188479008, 35.634770745575779 ] } },
{ "type": "Feature", "properties": { "FID": null, "交差点番号": null, "交差点名": "かむろ坂下", "Y": null, "X": null, "Street1": "山手通り", "street2": "かむろ坂通り", "Street3": null, "rank": 4 }, "geometry": { "type": "Point", "coordinates": [ 139.713913563616615, 35.627425619894922 ] } },
{ "type": "Feature", "properties": { "FID": null, "交差点番号": null, "交差点名": "目黒郵便局前", "Y": null, "X": null, "Street1": "目黒通り", "street2": "鮫洲大山線（環状6.5号線）", "Street3": null, "rank": 5 }, "geometry": { "type": "Point", "coordinates": [ 139.693224005235152, 35.627686400987919 ] } },
{ "type": "Feature", "properties": { "FID": null, "交差点番号": null, "交差点名": "中根", "Y": null, "X": null, "Street1": "目黒通り", "street2": "自由通り", "Street3": null, "rank": 4 }, "geometry": { "type": "Point", "coordinates": [ 139.66971131373603, 35.614995099914744 ] } },
{ "type": "Feature", "properties": { "FID": null, "交差点番号": null, "交差点名": "東京医療センター前", "Y": null, "X": null, "Street1": "駒沢通り", "street2": "自由通り", "Street3": null, "rank": 4 }, "geometry": { "type": "Point", "coordinates": [ 139.665865440729362, 35.62481641361903 ] } },
{ "type": "Feature", "properties": { "FID": null, "交差点番号": null, "交差点名": "駒澤大学駅前", "Y": null, "X": null, "Street1": "玉川通り", "street2": "自由通り", "Street3": null, "rank": 5 }, "geometry": { "type": "Point", "coordinates": [ 139.661191679403402, 35.633181001001539 ] } },
{ "type": "Feature", "properties": { "FID": null, "交差点番号": null, "交差点名": "駒沢", "Y": null, "X": null, "Street1": "玉川通り", "street2": "駒沢公園通り", "Street3": null, "rank": 4 }, "geometry": { "type": "Point", "coordinates": [ 139.65658264698871, 35.631083927680521 ] } },
{ "type": "Feature", "properties": { "FID": null, "交差点番号": null, "交差点名": "深沢不動", "Y": null, "X": null, "Street1": "駒沢通り", "street2": "駒沢公園通り", "Street3": null, "rank": 4 }, "geometry": { "type": "Point", "coordinates": [ 139.654070479312566, 35.621723874929557 ] } },
{ "type": "Feature", "properties": { "FID": null, "交差点番号": null, "交差点名": "多摩美大前", "Y": null, "X": null, "Street1": "環八通り", "street2": "駒沢通り", "Street3": null, "rank": 4 }, "geometry": { "type": "Point", "coordinates": [ 139.636878898422623, 35.614883308397708 ] } },
{ "type": "Feature", "properties": { "FID": null, "交差点番号": null, "交差点名": "等々力不動前", "Y": null, "X": null, "Street1": "環八通り", "street2": "目黒通り", "Street3": null, "rank": 4 }, "geometry": { "type": "Point", "coordinates": [ 139.647443893623205, 35.605062788688855 ] } },
{ "type": "Feature", "properties": { "FID": null, "交差点番号": null, "交差点名": "矢口陸橋", "Y": null, "X": null, "Street1": "環八通り", "street2": "第二京浜", "Street3": null, "rank": 5 }, "geometry": { "type": "Point", "coordinates": [ 139.696527817458531, 35.565570749827707 ] } },
{ "type": "Feature", "properties": { "FID": null, "交差点番号": null, "交差点名": "春日橋", "Y": null, "X": null, "Street1": "環七通り", "street2": "池上通り", "Street3": null, "rank": 4 }, "geometry": { "type": "Point", "coordinates": [ 139.72182623775609, 35.581431075270139 ] } },
{ "type": "Feature", "properties": { "FID": null, "交差点番号": null, "交差点名": "山王口", "Y": null, "X": null, "Street1": "池上通り", "street2": "ジャーマン通り", "Street3": null, "rank": 4 }, "geometry": { "type": "Point", "coordinates": [ 139.728312434333588, 35.590630306797635 ] } },
{ "type": "Feature", "properties": { "FID": null, "交差点番号": null, "交差点名": "馬込銀座", "Y": null, "X": null, "Street1": "環七通り", "street2": "ジャーマン通り", "Street3": null, "rank": 4 }, "geometry": { "type": "Point", "coordinates": [ 139.718393532170154, 35.591635682159321 ] } },
{ "type": "Feature", "properties": { "FID": null, "交差点番号": null, "交差点名": "大森東", "Y": null, "X": null, "Street1": "環七通り", "street2": "第一京浜", "Street3": null, "rank": 4 }, "geometry": { "type": "Point", "coordinates": [ 139.735137888959571, 35.577664472522706 ] } },
{ "type": "Feature", "properties": { "FID": null, "交差点番号": null, "交差点名": "沢田", "Y": null, "X": null, "Street1": "環七通り", "street2": "東邦医大通り", "Street3": null, "rank": 5 }, "geometry": { "type": "Point", "coordinates": [ 139.728028899652941, 35.57932647568903 ] } },
{ "type": "Feature", "properties": { "FID": null, "交差点番号": null, "交差点名": "東蒲田2丁目", "Y": null, "X": null, "Street1": "第一京浜", "street2": "キネマ通り", "Street3": "多摩堤通り", "rank": 4 }, "geometry": { "type": "Point", "coordinates": [ 139.725756964643978, 35.562507468655788 ] } },
{ "type": "Feature", "properties": { "FID": null, "交差点番号": null, "交差点名": "千鳥1丁目", "Y": null, "X": null, "Street1": "第二京浜", "street2": "池上通り", "Street3": null, "rank": 5 }, "geometry": { "type": "Point", "coordinates": [ 139.697395845821688, 35.572451783015183 ] } },
{ "type": "Feature", "properties": { "FID": null, "交差点番号": null, "交差点名": "松原橋", "Y": null, "X": null, "Street1": "第二京浜", "street2": "環七通り", "Street3": null, "rank": 3 }, "geometry": { "type": "Point", "coordinates": [ 139.711654861908528, 35.595543859169531 ] } },
{ "type": "Feature", "properties": { "FID": null, "交差点番号": null, "交差点名": "北ふ頭橋", "Y": null, "X": null, "Street1": "海岸通り", "street2": "ジュネーヴ平和通り", "Street3": null, "rank": 4 }, "geometry": { "type": "Point", "coordinates": [ 139.747620267115622, 35.611516172723384 ] } },
{ "type": "Feature", "properties": { "FID": null, "交差点番号": null, "交差点名": "八潮橋", "Y": null, "X": null, "Street1": "海岸通り", "street2": "国道357号", "Street3": "鮫洲大山線（環状6.5号線）", "rank": 4 }, "geometry": { "type": "Point", "coordinates": [ 139.743170356264216, 35.606805002985858 ] } },
{ "type": "Feature", "properties": { "FID": null, "交差点番号": null, "交差点名": "北品川2丁目", "Y": null, "X": null, "Street1": "第一京浜", "street2": "山手通り", "Street3": null, "rank": 4 }, "geometry": { "type": "Point", "coordinates": [ 139.741051145388042, 35.616916234847594 ] } },
{ "type": "Feature", "properties": { "FID": null, "交差点番号": null, "交差点名": "東品川1丁目", "Y": null, "X": null, "Street1": "海岸通り", "street2": "山手通り", "Street3": "旧海岸通り", "rank": 5 }, "geometry": { "type": "Point", "coordinates": [ 139.746266451323407, 35.620538020253122 ] } },
{ "type": "Feature", "properties": { "FID": null, "交差点番号": null, "交差点名": "天王洲アイル", "Y": null, "X": null, "Street1": "海岸通り", "street2": "天王洲通り", "Street3": null, "rank": 4 }, "geometry": { "type": "Point", "coordinates": [ 139.750960947951995, 35.621857832633758 ] } },
{ "type": "Feature", "properties": { "FID": null, "交差点番号": null, "交差点名": "潮路橋", "Y": null, "X": null, "Street1": "海岸通り", "street2": "旧海岸通り", "Street3": null, "rank": 4 }, "geometry": { "type": "Point", "coordinates": [ 139.755198175155869, 35.642936839651576 ] } },
{ "type": "Feature", "properties": { "FID": null, "交差点番号": null, "交差点名": "白金1丁目", "Y": null, "X": null, "Street1": "桜田通り", "street2": "麻布通り", "Street3": "北里通り", "rank": 3 }, "geometry": { "type": "Point", "coordinates": [ 139.734121198991204, 35.642975735989907 ] } },
{ "type": "Feature", "properties": { "FID": null, "交差点番号": null, "交差点名": "泉岳寺", "Y": null, "X": null, "Street1": "第一京浜", "street2": "伊皿子坂", "Street3": null, "rank": 4 }, "geometry": { "type": "Point", "coordinates": [ 139.739395581718526, 35.637532725073775 ] } },
{ "type": "Feature", "properties": { "FID": null, "交差点番号": null, "交差点名": "三田2丁目", "Y": null, "X": null, "Street1": "桜田通り", "street2": "三田通り", "Street3": null, "rank": 4 }, "geometry": { "type": "Point", "coordinates": [ 139.744578862214667, 35.648007531342813 ] } },
{ "type": "Feature", "properties": { "FID": null, "交差点番号": null, "交差点名": "芝5丁目", "Y": null, "X": null, "Street1": "第一京浜", "street2": "日比谷通り", "Street3": null, "rank": 4 }, "geometry": { "type": "Point", "coordinates": [ 139.74879844752229, 35.647607512506063 ] } },
{ "type": "Feature", "properties": { "FID": null, "交差点番号": null, "交差点名": "芝4丁目", "Y": null, "X": null, "Street1": "第一京浜", "street2": "旧海岸通り", "Street3": null, "rank": 5 }, "geometry": { "type": "Point", "coordinates": [ 139.75311450577351, 35.649163977061512 ] } },
{ "type": "Feature", "properties": { "FID": null, "交差点番号": null, "交差点名": "二の橋", "Y": null, "X": null, "Street1": "麻布通り", "street2": "仙台坂", "Street3": null, "rank": 4 }, "geometry": { "type": "Point", "coordinates": [ 139.736695673345366, 35.652633482586019 ] } },
{ "type": "Feature", "properties": { "FID": null, "交差点番号": null, "交差点名": "恵比寿郵便局", "Y": null, "X": null, "Street1": "恵比寿通り", "street2": "新橋通り", "Street3": null, "rank": 4 }, "geometry": { "type": "Point", "coordinates": [ 139.716559586582349, 35.645617746229973 ] } },
{ "type": "Feature", "properties": { "FID": null, "交差点番号": null, "交差点名": "広尾1丁目", "Y": null, "X": null, "Street1": "明治通り", "street2": "日赤通り", "Street3": "新橋通り", "rank": 4 }, "geometry": { "type": "Point", "coordinates": [ 139.717442108690534, 35.648700574401815 ] } },
{ "type": "Feature", "properties": { "FID": null, "交差点番号": null, "交差点名": "天神下", "Y": null, "X": null, "Street1": "春日通り", "street2": "昌平橋通り", "Street3": null, "rank": 3 }, "geometry": { "type": "Point", "coordinates": [ 139.76994401339357, 35.708236012183768 ] } },
{ "type": "Feature", "properties": { "FID": null, "交差点番号": null, "交差点名": "池之端1丁目", "Y": null, "X": null, "Street1": "不忍通り", "street2": "昌平橋通り", "Street3": null, "rank": 4 }, "geometry": { "type": "Point", "coordinates": [ 139.769769499848621, 35.70928003831613 ] } },
{ "type": "Feature", "properties": { "FID": null, "交差点番号": null, "交差点名": "上野4丁目", "Y": null, "X": null, "Street1": "中央通り", "street2": "不忍通り", "Street3": null, "rank": 3 }, "geometry": { "type": "Point", "coordinates": [ 139.773512533882126, 35.709750308316089 ] } },
{ "type": "Feature", "properties": { "FID": null, "交差点番号": null, "交差点名": "サッカーミュージアム入口", "Y": null, "X": null, "Street1": "本郷通り", "street2": "蔵前橋通り", "Street3": "サッカー通り", "rank": 4 }, "geometry": { "type": "Point", "coordinates": [ 139.76355576454776, 35.703135211002234 ] } },
{ "type": "Feature", "properties": { "FID": null, "交差点番号": null, "交差点名": "植物園前", "Y": null, "X": null, "Street1": "播磨坂", "street2": "千川通り（小石川）", "Street3": null, "rank": 5 }, "geometry": { "type": "Point", "coordinates": [ 139.744463747726797, 35.717370027614159 ] } },
{ "type": "Feature", "properties": { "FID": null, "交差点番号": null, "交差点名": "小石川5丁目", "Y": null, "X": null, "Street1": "春日通り", "street2": "播磨坂", "Street3": null, "rank": 5 }, "geometry": { "type": "Point", "coordinates": [ 139.739936807953313, 35.71530774368582 ] } },
{ "type": "Feature", "properties": { "FID": null, "交差点番号": null, "交差点名": "大塚3丁目", "Y": null, "X": null, "Street1": "春日通り", "street2": "不忍通り", "Street3": null, "rank": 4 }, "geometry": { "type": "Point", "coordinates": [ 139.731799472356556, 35.721500385547643 ] } },
{ "type": "Feature", "properties": { "FID": null, "交差点番号": null, "交差点名": "武蔵野病院前", "Y": null, "X": null, "Street1": "環七通り", "street2": "要町通り", "Street3": null, "rank": 4 }, "geometry": { "type": "Point", "coordinates": [ 139.674801088319299, 35.745511449758936 ] } },
{ "type": "Feature", "properties": { "FID": null, "交差点番号": null, "交差点名": "阿佐谷北6丁目", "Y": null, "X": null, "Street1": "早稲田通り", "street2": "中杉通り", "Street3": null, "rank": 5 }, "geometry": { "type": "Point", "coordinates": [ 139.634776514204844, 35.714154205015113 ] } },
{ "type": "Feature", "properties": { "FID": null, "交差点番号": null, "交差点名": "杉並区役所前", "Y": null, "X": null, "Street1": "青梅街道", "street2": "中杉通り", "Street3": null, "rank": 4 }, "geometry": { "type": "Point", "coordinates": [ 139.635541034403815, 35.699460301429099 ] } },
{ "type": "Feature", "properties": { "FID": null, "交差点番号": null, "交差点名": "環八井の頭交差点", "Y": null, "X": null, "Street1": "環八通り", "street2": "井の頭通り", "Street3": null, "rank": 4 }, "geometry": { "type": "Point", "coordinates": [ 139.616181364288224, 35.688707594019853 ] } },
{ "type": "Feature", "properties": { "FID": null, "交差点番号": null, "交差点名": "五日市街道入口", "Y": null, "X": null, "Street1": "青梅街道", "street2": "五日市街道", "Street3": "高南通り", "rank": 4 }, "geometry": { "type": "Point", "coordinates": [ 139.649527434331532, 35.697923968686283 ] } },
{ "type": "Feature", "properties": { "FID": null, "交差点番号": null, "交差点名": "葛西橋東詰", "Y": null, "X": null, "Street1": "葛西橋通り", "street2": "船堀街道", "Street3": null, "rank": 4 }, "geometry": { "type": "Point", "coordinates": [ 139.85674563643019, 35.670225527502474 ] } },
{ "type": "Feature", "properties": { "FID": null, "交差点番号": null, "交差点名": "葛西臨海公園前", "Y": null, "X": null, "Street1": "環七通り", "street2": "東京湾岸道路", "Street3": null, "rank": 4 }, "geometry": { "type": "Point", "coordinates": [ 139.866999043428365, 35.643058725987153 ] } },
{ "type": "Feature", "properties": { "FID": null, "交差点番号": null, "交差点名": "東葛西7丁目", "Y": null, "X": null, "Street1": "環七通り", "street2": "清砂大橋通り", "Street3": null, "rank": 5 }, "geometry": { "type": "Point", "coordinates": [ 139.872929763564287, 35.66025843285292 ] } },
{ "type": "Feature", "properties": { "FID": null, "交差点番号": null, "交差点名": "清新一中北", "Y": null, "X": null, "Street1": "清砂大橋通り", "street2": "船堀街道", "Street3": null, "rank": 4 }, "geometry": { "type": "Point", "coordinates": [ 139.853671059097792, 35.664673783936294 ] } },
{ "type": "Feature", "properties": { "FID": null, "交差点番号": null, "交差点名": "船堀橋東詰", "Y": null, "X": null, "Street1": "新大橋通り", "street2": "船堀街道", "Street3": null, "rank": 4 }, "geometry": { "type": "Point", "coordinates": [ 139.865014119765107, 35.686321637580285 ] } },
{ "type": "Feature", "properties": { "FID": null, "交差点番号": null, "交差点名": "夢の島", "Y": null, "X": null, "Street1": "明治通り", "street2": "東京湾岸道路", "Street3": null, "rank": 3 }, "geometry": { "type": "Point", "coordinates": [ 139.825668467457916, 35.646412982648364 ] } },
{ "type": "Feature", "properties": { "FID": null, "交差点番号": null, "交差点名": "辰巳", "Y": null, "X": null, "Street1": "東京湾岸道路", "street2": "三つ目通り", "Street3": null, "rank": 4 }, "geometry": { "type": "Point", "coordinates": [ 139.812863269906643, 35.643975098426857 ] } },
{ "type": "Feature", "properties": { "FID": null, "交差点番号": null, "交差点名": "東雲", "Y": null, "X": null, "Street1": "晴海通り", "street2": "東京湾岸道路", "Street3": null, "rank": 4 }, "geometry": { "type": "Point", "coordinates": [ 139.802672598122314, 35.640729553495163 ] } },
{ "type": "Feature", "properties": { "FID": null, "交差点番号": null, "交差点名": "角乗り橋北", "Y": null, "X": null, "Street1": "有明通り", "street2": "東京湾岸道路", "Street3": null, "rank": 4 }, "geometry": { "type": "Point", "coordinates": [ 139.796780846950185, 35.638420411241043 ] } },
{ "type": "Feature", "properties": { "FID": null, "交差点番号": null, "交差点名": "有明中央大橋北", "Y": null, "X": null, "Street1": "環二通り", "street2": "東京湾岸道路", "Street3": null, "rank": 4 }, "geometry": { "type": "Point", "coordinates": [ 139.792272132780624, 35.635933498474003 ] } },
{ "type": "Feature", "properties": { "FID": null, "交差点番号": null, "交差点名": "枝川1丁目", "Y": null, "X": null, "Street1": "越中島通り", "street2": "環状3号線", "Street3": null, "rank": 5 }, "geometry": { "type": "Point", "coordinates": [ 139.802215872349848, 35.658368899316635 ] } },
{ "type": "Feature", "properties": { "FID": null, "交差点番号": null, "交差点名": "新砂1丁目", "Y": null, "X": null, "Street1": "明治通り", "street2": "塩浜通り", "Street3": null, "rank": 4 }, "geometry": { "type": "Point", "coordinates": [ 139.823694374117537, 35.663302129830136 ] } },
{ "type": "Feature", "properties": { "FID": null, "交差点番号": null, "交差点名": "新砂2丁目", "Y": null, "X": null, "Street1": "明治通り", "street2": "潮見通り", "Street3": null, "rank": 5 }, "geometry": { "type": "Point", "coordinates": [ 139.823996657871021, 35.657613447386055 ] } },
{ "type": "Feature", "properties": { "FID": null, "交差点番号": null, "交差点名": "扇橋2丁目", "Y": null, "X": null, "Street1": "四ツ目通り", "street2": "清州橋通り", "Street3": null, "rank": 4 }, "geometry": { "type": "Point", "coordinates": [ 139.816118467068435, 35.683035777731028 ] } },
{ "type": "Feature", "properties": { "FID": null, "交差点番号": null, "交差点名": "住吉2丁目", "Y": null, "X": null, "Street1": "新大橋通り", "street2": "四ツ目通り", "Street3": null, "rank": 4 }, "geometry": { "type": "Point", "coordinates": [ 139.81577071858203, 35.688997922112861 ] } },
{ "type": "Feature", "properties": { "FID": null, "交差点番号": null, "交差点名": "押上駅前", "Y": null, "X": null, "Street1": "浅草通り", "street2": "四ツ目通り", "Street3": null, "rank": 4 }, "geometry": { "type": "Point", "coordinates": [ 139.8136911754697, 35.709061638421353 ] } },
{ "type": "Feature", "properties": { "FID": null, "交差点番号": null, "交差点名": "吾妻橋交番前", "Y": null, "X": null, "Street1": "浅草通り", "street2": "三つ目通り", "Street3": null, "rank": 4 }, "geometry": { "type": "Point", "coordinates": [ 139.804349749320721, 35.708594415714579 ] } },
{ "type": "Feature", "properties": { "FID": null, "交差点番号": null, "交差点名": "業平1丁目", "Y": null, "X": null, "Street1": "浅草通り", "street2": "言問通り", "Street3": null, "rank": 5 }, "geometry": { "type": "Point", "coordinates": [ 139.808573551633231, 35.708896759533886 ] } },
{ "type": "Feature", "properties": { "FID": null, "交差点番号": null, "交差点名": "言問橋東", "Y": null, "X": null, "Street1": "水戸街道", "street2": "言問通り", "Street3": "三つ目通り", "rank": 3 }, "geometry": { "type": "Point", "coordinates": [ 139.805758220487576, 35.712845935081909 ] } },
{ "type": "Feature", "properties": { "FID": null, "交差点番号": null, "交差点名": "東向島", "Y": null, "X": null, "Street1": "水戸街道", "street2": "明治通り", "Street3": null, "rank": 4 }, "geometry": { "type": "Point", "coordinates": [ 139.818340332308168, 35.722411949851725 ] } },
{ "type": "Feature", "properties": { "FID": null, "交差点番号": null, "交差点名": "白髭橋東詰", "Y": null, "X": null, "Street1": "明治通り", "street2": "墨堤通り", "Street3": null, "rank": 4 }, "geometry": { "type": "Point", "coordinates": [ 139.813138884497846, 35.72753655404329 ] } },
{ "type": "Feature", "properties": { "FID": null, "交差点番号": null, "交差点名": "鐘ヶ淵陸橋", "Y": null, "X": null, "Street1": "墨堤通り", "street2": "鐘ヶ淵通り", "Street3": null, "rank": 4 }, "geometry": { "type": "Point", "coordinates": [ 139.817868393477113, 35.734767209403017 ] } },
{ "type": "Feature", "properties": { "FID": null, "交差点番号": null, "交差点名": "本田広小路", "Y": null, "X": null, "Street1": "水戸街道", "street2": "平和橋通り", "Street3": null, "rank": 4 }, "geometry": { "type": "Point", "coordinates": [ 139.837747145668857, 35.738487783745391 ] } },
{ "type": "Feature", "properties": { "FID": null, "交差点番号": null, "交差点名": "たつみ橋", "Y": null, "X": null, "Street1": "蔵前橋通り", "street2": "平和橋通り", "Street3": "", "rank": 4 }, "geometry": { "type": "Point", "coordinates": [ 139.856984419360288, 35.719312810655154 ] } },
{ "type": "Feature", "properties": { "FID": null, "交差点番号": null, "交差点名": "八蔵橋", "Y": null, "X": null, "Street1": "千葉街道", "street2": "平和橋通り", "Street3": null, "rank": 4 }, "geometry": { "type": "Point", "coordinates": [ 139.867391460512664, 35.708230297122469 ] } },
{ "type": "Feature", "properties": { "FID": null, "交差点番号": null, "交差点名": "東小松川", "Y": null, "X": null, "Street1": "京葉道路", "street2": "船堀街道", "Street3": "千葉街道", "rank": 4 }, "geometry": { "type": "Point", "coordinates": [ 139.867979099282536, 35.703234915430436 ] } },
{ "type": "Feature", "properties": { "FID": null, "交差点番号": null, "交差点名": "葛西工業高校前", "Y": null, "X": null, "Street1": "環七通り", "street2": "新大橋通り", "Street3": null, "rank": 5 }, "geometry": { "type": "Point", "coordinates": [ 139.881423968208736, 35.683148348101312 ] } },
{ "type": "Feature", "properties": { "FID": null, "交差点番号": null, "交差点名": "新今井橋", "Y": null, "X": null, "Street1": "新大橋通り", "street2": "篠崎街道", "Street3": "今井街道", "rank": 5 }, "geometry": { "type": "Point", "coordinates": [ 139.889427709933329, 35.682106307327324 ] } },
{ "type": "Feature", "properties": { "FID": null, "交差点番号": null, "交差点名": "一之江陸橋", "Y": null, "X": null, "Street1": "環七通り", "street2": "今井街道", "Street3": null, "rank": 5 }, "geometry": { "type": "Point", "coordinates": [ 139.882703699780109, 35.687339279799275 ] } },
{ "type": "Feature", "properties": { "FID": null, "交差点番号": null, "交差点名": "東小岩4丁目", "Y": null, "X": null, "Street1": "千葉街道", "street2": "柴又街道", "Street3": null, "rank": 4 }, "geometry": { "type": "Point", "coordinates": [ 139.887569200792456, 35.728773224078267 ] } },
{ "type": "Feature", "properties": { "FID": null, "交差点番号": null, "交差点名": "江戸川", "Y": null, "X": null, "Street1": "千葉街道", "street2": "蔵前橋通り", "Street3": null, "rank": 4 }, "geometry": { "type": "Point", "coordinates": [ 139.894912816943048, 35.735707697309337 ] } },
{ "type": "Feature", "properties": { "FID": null, "交差点番号": null, "交差点名": "総武陸橋下", "Y": null, "X": null, "Street1": "環七通り", "street2": "蔵前橋通り", "Street3": null, "rank": 4 }, "geometry": { "type": "Point", "coordinates": [ 139.870080953970074, 35.728312079726379 ] } },
{ "type": "Feature", "properties": { "FID": null, "交差点番号": null, "交差点名": "奥戸陸橋下", "Y": null, "X": null, "Street1": "環七通り", "street2": "奥戸街道", "Street3": null, "rank": 5 }, "geometry": { "type": "Point", "coordinates": [ 139.866402195712197, 35.734301538976624 ] } },
{ "type": "Feature", "properties": { "FID": null, "交差点番号": null, "交差点名": "柴又新道口", "Y": null, "X": null, "Street1": "蔵前橋通り", "street2": "柴又街道", "Street3": null, "rank": 4 }, "geometry": { "type": "Point", "coordinates": [ 139.88479033667673, 35.736172659425854 ] } },
{ "type": "Feature", "properties": { "FID": null, "交差点番号": null, "交差点名": "平井大橋西詰", "Y": null, "X": null, "Street1": "蔵前橋通り", "street2": "ゆりのき橋通り", "Street3": null, "rank": 5 }, "geometry": { "type": "Point", "coordinates": [ 139.842706611164886, 35.709202642052951 ] } },
{ "type": "Feature", "properties": { "FID": null, "交差点番号": null, "交差点名": "亀戸4丁目", "Y": null, "X": null, "Street1": "明治通り", "street2": "蔵前橋通り", "Street3": null, "rank": 4 }, "geometry": { "type": "Point", "coordinates": [ 139.825328621504724, 35.701717926957677 ] } },
{ "type": "Feature", "properties": { "FID": null, "交差点番号": null, "交差点名": "福神橋", "Y": null, "X": null, "Street1": "明治通り", "street2": "浅草通り", "Street3": null, "rank": 4 }, "geometry": { "type": "Point", "coordinates": [ 139.825950992821049, 35.70496967312809 ] } },
{ "type": "Feature", "properties": { "FID": null, "交差点番号": null, "交差点名": "小村井", "Y": null, "X": null, "Street1": "明治通り", "street2": "丸八通り", "Street3": null, "rank": 4 }, "geometry": { "type": "Point", "coordinates": [ 139.828909753385574, 35.711454018998246 ] } },
{ "type": "Feature", "properties": { "FID": null, "交差点番号": null, "交差点名": "堀切5丁目", "Y": null, "X": null, "Street1": "平和橋通り", "street2": "川の手通り", "Street3": null, "rank": 4 }, "geometry": { "type": "Point", "coordinates": [ 139.827702818721633, 35.74920423571141 ] } },
{ "type": "Feature", "properties": { "FID": null, "交差点番号": null, "交差点名": "千住宮本町", "Y": null, "X": null, "Street1": "日光街道", "street2": "墨堤通り", "Street3": null, "rank": 4 }, "geometry": { "type": "Point", "coordinates": [ 139.797761895885657, 35.744412890386236 ] } },
{ "type": "Feature", "properties": { "FID": null, "交差点番号": null, "交差点名": "千住桜木町", "Y": null, "X": null, "Street1": "尾竹橋通り", "street2": "墨堤通り", "Street3": null, "rank": 4 }, "geometry": { "type": "Point", "coordinates": [ 139.789933038662895, 35.755738052437536 ] } },
{ "type": "Feature", "properties": { "FID": null, "交差点番号": null, "交差点名": "梅田", "Y": null, "X": null, "Street1": "日光街道", "street2": "江北橋通り", "Street3": null, "rank": 3 }, "geometry": { "type": "Point", "coordinates": [ 139.803836880671639, 35.763431472808783 ] } },
{ "type": "Feature", "properties": { "FID": null, "交差点番号": null, "交差点名": "武道館東口", "Y": null, "X": null, "Street1": "江北橋通り", "street2": "川の手通り", "Street3": null, "rank": 4 }, "geometry": { "type": "Point", "coordinates": [ 139.829168994921872, 35.764647085235914 ] } },
{ "type": "Feature", "properties": { "FID": null, "交差点番号": null, "交差点名": "亀有2丁目", "Y": null, "X": null, "Street1": "環七通り", "street2": "江北橋通り", "Street3": null, "rank": 4 }, "geometry": { "type": "Point", "coordinates": [ 139.85175817505484, 35.763162460611795 ] } },
{ "type": "Feature", "properties": { "FID": null, "交差点番号": null, "交差点名": "綾瀬警察署前", "Y": null, "X": null, "Street1": "環七通り", "street2": "川の手通り", "Street3": null, "rank": 4 }, "geometry": { "type": "Point", "coordinates": [ 139.830198964135008, 35.777474070283766 ] } },
{ "type": "Feature", "properties": { "FID": null, "交差点番号": null, "交差点名": "梅島陸橋", "Y": null, "X": null, "Street1": "日光街道", "street2": "環七通り", "Street3": null, "rank": 4 }, "geometry": { "type": "Point", "coordinates": [ 139.803075121001427, 35.778668340479719 ] } },
{ "type": "Feature", "properties": { "FID": null, "交差点番号": null, "交差点名": "万願寺前", "Y": null, "X": null, "Street1": "環七通り", "street2": "尾竹橋通り", "Street3": null, "rank": 4 }, "geometry": { "type": "Point", "coordinates": [ 139.784782465548943, 35.778150564694002 ] } },
{ "type": "Feature", "properties": { "FID": null, "交差点番号": null, "交差点名": "江北陸橋下", "Y": null, "X": null, "Street1": "環七通り", "street2": "尾久橋通り", "Street3": null, "rank": 4 }, "geometry": { "type": "Point", "coordinates": [ 139.770151480181653, 35.778242079549443 ] } },
{ "type": "Feature", "properties": { "FID": null, "交差点番号": null, "交差点名": "保木間", "Y": null, "X": null, "Street1": "日光街道", "street2": "舎人公園通り", "Street3": null, "rank": 5 }, "geometry": { "type": "Point", "coordinates": [ 139.802294625099847, 35.794828305385771 ] } },
{ "type": "Feature", "properties": { "FID": null, "交差点番号": null, "交差点名": "伊興町前沼", "Y": null, "X": null, "Street1": "尾竹橋通り", "street2": "赤山街道", "Street3": null, "rank": 4 }, "geometry": { "type": "Point", "coordinates": [ 139.788430384735022, 35.795835547178591 ] } },
{ "type": "Feature", "properties": { "FID": null, "交差点番号": null, "交差点名": "舎人公園", "Y": null, "X": null, "Street1": "尾久橋通り", "street2": "舎人公園通り", "Street3": null, "rank": 4 }, "geometry": { "type": "Point", "coordinates": [ 139.770186666909581, 35.795791008001089 ] } },
{ "type": "Feature", "properties": { "FID": null, "交差点番号": null, "交差点名": "宮堀", "Y": null, "X": null, "Street1": "環七通り", "street2": "北本通り", "Street3": null, "rank": 3 }, "geometry": { "type": "Point", "coordinates": [ 139.734251392082172, 35.769507316615552 ] } }
]
}
